{"type":"FeatureCollection","features":[{"type":"Feature","geometry":{"type":"Polygon","coordinates":[[[-77.0364,39.2326],[-77.0417,39.2362],[-77.0453,39.2353],[-77.0453,39.233],[-77.0382,39.2258],[-77.0347,39.2212],[-77.0323,39.2198],[-77.0306,39.2153],[-77.0253,39.2121],[-77.0217,39.2076],[-77.0188,39.2066],[-77.014,39.2039],[-77.0135,39.1998],[-77.0177,39.1967],[-77.0195,39.194],[-77.0159,39.1921],[-77.0147,39.1908],[-77.0112,39.1912],[-77.0094,39.1907],[-77.0088,39.1894],[-77.0034,39.1925],[-77.0076,39.1971],[-77.007,39.1994],[-77.0016,39.2016],[-76.9962,39.2025],[-76.9939,39.2038],[-76.9968,39.2052],[-77.0022,39.2052],[-77.0063,39.2039],[-77.0069,39.2071],[-77.0081,39.2089],[-77.0075,39.213],[-77.0092,39.2139],[-77.0134,39.2125],[-77.0169,39.2162],[-77.0205,39.2175],[-77.0222,39.2203],[-77.0246,39.2198],[-77.0282,39.2221],[-77.0305,39.2244],[-77.0287,39.2275],[-77.0293,39.2294],[-77.0311,39.2298],[-77.0329,39.2294],[-77.0364,39.2326]]]},"properties":{"NAME":"Triadelphia Reservoir"}},{"type":"Feature","geometry":{"type":"Polygon","coordinates":[[[-76.9184,39.1355],[-76.9225,39.1373],[-76.9261,39.141],[-76.9296,39.141],[-76.9332,39.1397],[-76.9344,39.1374],[-76.9368,39.136],[-76.9481,39.1329],[-76.9564,39.1375],[-76.9587,39.1371],[-76.9593,39.1343],[-76.9487,39.1288],[-76.9446,39.1279],[-76.9392,39.1311],[-76.9351,39.1306],[-76.9321,39.1338],[-76.9285,39.1351],[-76.9214,39.131],[-76.9143,39.1251],[-76.9084,39.1237],[-76.9072,39.121],[-76.8995,39.1241],[-76.8942,39.125],[-76.8918,39.1281],[-76.887,39.1295],[-76.8865,39.1245],[-76.8835,39.1231],[-76.8835,39.1204],[-76.8806,39.1208],[-76.8788,39.1176],[-76.8711,39.1235],[-76.8734,39.1249],[-76.8758,39.1253],[-76.8769,39.1285],[-76.8781,39.1299],[-76.8811,39.1281],[-76.8793,39.1326],[-76.8822,39.1344],[-76.8882,39.1354],[-76.8953,39.1322],[-76.8988,39.1327],[-76.903,39.13],[-76.9072,39.1314],[-76.9119,39.1309],[-76.9143,39.1346],[-76.9184,39.1355]]]},"properties":{"NAME":"T. Howard Duckett Reservoir"}}]}