{"type":"FeatureCollection","features":[{"type":"Feature","geometry":{"type":"Polygon","coordinates":[[[-76.99614,38.97387],[-76.99471,38.97511],[-76.9889,38.97622],[-76.98671,38.97717],[-76.98706,38.97754],[-76.98471,38.98696],[-76.98763,38.98879],[-76.9912,38.99228],[-76.90952,39.10237],[-76.91009,39.10289],[-76.90913,39.10359],[-76.90891,39.1032],[-76.90874,39.10344],[-76.90355,39.11484],[-76.90733,39.1183],[-76.90271,39.1209],[-76.90323,39.12158],[-76.90175,39.12225],[-76.90103,39.12133],[-76.8942,39.12382],[-76.89299,39.12626],[-76.89106,39.12699],[-76.88766,39.13187],[-76.88948,39.13129],[-76.89348,39.12835],[-76.89627,39.12721],[-76.90523,39.12518],[-76.90661,39.12525],[-76.91076,39.12662],[-76.91225,39.1268],[-76.91515,39.12645],[-76.91587,39.12834],[-76.9173,39.12991],[-76.91843,39.13185],[-76.92151,39.13315],[-76.92353,39.13351],[-76.92513,39.13475],[-76.92643,39.13483],[-76.92783,39.13827],[-76.92834,39.13861],[-76.93422,39.13622],[-76.93528,39.13437],[-76.93811,39.13288],[-76.93968,39.13233],[-76.94099,39.13278],[-76.9433,39.13251],[-76.94591,39.12952],[-76.94879,39.12942],[-76.95816,39.13364],[-76.95869,39.13418],[-76.95851,39.13484],[-76.9559,39.13785],[-76.95486,39.13852],[-76.95234,39.13918],[-76.9524,39.14145],[-76.95296,39.14248],[-76.95235,39.14304],[-76.95013,39.14341],[-76.94992,39.14397],[-76.95036,39.14471],[-76.9519,39.14629],[-76.95432,39.14547],[-76.95554,39.14462],[-76.95889,39.14495],[-76.96137,39.14564],[-76.96269,39.1456],[-76.96393,39.14803],[-76.96478,39.14851],[-76.9666,39.14874],[-76.96883,39.14854],[-76.97333,39.14954],[-76.97541,39.14951],[-76.97667,39.15193],[-76.97671,39.15399],[-76.97376,39.15855],[-76.97366,39.15971],[-76.97286,39.16147],[-76.97334,39.16218],[-76.97535,39.16334],[-76.97779,39.16296],[-76.9786,39.16372],[-76.98003,39.1638],[-76.98076,39.16442],[-76.98192,39.16433],[-76.98357,39.1655],[-76.98611,39.16582],[-76.98764,39.16639],[-76.99311,39.16643],[-76.99416,39.1668],[-76.9971,39.16639],[-76.99891,39.16812],[-77.00116,39.16968],[-77.00141,39.17037],[-77.00117,39.17098],[-76.9973,39.17424],[-76.99851,39.1751],[-77.00289,39.17413],[-77.0047,39.17432],[-77.00552,39.17589],[-77.00538,39.17627],[-77.00263,39.17609],[-76.99952,39.17704],[-76.99883,39.17784],[-77.00017,39.17868],[-77.00059,39.17843],[-77.002,39.17895],[-77.00426,39.17897],[-77.00741,39.18029],[-77.00833,39.18133],[-77.00822,39.1823],[-77.00759,39.18271],[-77.0078,39.1832],[-77.00753,39.18492],[-77.00627,39.18563],[-77.00546,39.18777],[-77.00431,39.18951],[-77.00448,39.1903],[-77.00407,39.19112],[-77.00433,39.19238],[-77.00531,39.19305],[-77.01068,39.19473],[-77.01155,39.19583],[-77.01138,39.19706],[-77.0095,39.20054],[-77.0093,39.20175],[-77.00981,39.20352],[-77.01079,39.20526],[-77.01254,39.20725],[-77.01643,39.20905],[-77.01834,39.21109],[-77.02457,39.21608],[-77.02739,39.21806],[-77.03211,39.22071],[-77.03235,39.22142],[-77.03191,39.22432],[-77.03438,39.22599],[-77.0354,39.2277],[-77.03569,39.22941],[-77.03855,39.23151],[-77.0442,39.23673],[-77.0461,39.23766],[-77.05051,39.23779],[-77.05345,39.23887],[-77.05589,39.23833],[-77.05723,39.23925],[-77.05767,39.24024],[-77.05911,39.24067],[-77.06006,39.24017],[-77.06168,39.24157],[-77.06096,39.24256],[-77.06082,39.24354],[-77.06148,39.24398],[-77.06095,39.24495],[-77.06245,39.24673],[-77.06222,39.2473],[-77.06581,39.24945],[-77.06552,39.25036],[-77.06575,39.25099],[-77.0665,39.25159],[-77.0673,39.25162],[-77.06843,39.25234],[-77.06831,39.25269],[-77.06868,39.25296],[-77.06923,39.25247],[-77.06958,39.25256],[-77.07005,39.25318],[-77.06981,39.25386],[-77.07155,39.25509],[-77.07257,39.255],[-77.07443,39.2561],[-77.07635,39.25601],[-77.07751,39.25636],[-77.07852,39.25748],[-77.07899,39.25758],[-77.07906,39.258],[-77.07864,39.25821],[-77.07981,39.25886],[-77.08003,39.25952],[-77.08061,39.25936],[-77.08376,39.26047],[-77.08604,39.26058],[-77.08896,39.26225],[-77.09299,39.26253],[-77.09517,39.26353],[-77.09592,39.26348],[-77.09593,39.26397],[-77.09717,39.26479],[-77.09869,39.26467],[-77.09905,39.26502],[-77.10179,39.26539],[-77.10354,39.26602],[-77.1061,39.2641],[-77.10771,39.26462],[-77.11089,39.26419],[-77.11246,39.265],[-77.11367,39.2645],[-77.11473,39.26546],[-77.11529,39.26557],[-77.11515,39.26609],[-77.11673,39.26761],[-77.11772,39.26767],[-77.12048,39.267],[-77.12301,39.26765],[-77.1233,39.26823],[-77.12444,39.26821],[-77.1253,39.26863],[-77.12647,39.26877],[-77.12711,39.26835],[-77.13035,39.2683],[-77.13083,39.26855],[-77.13144,39.27012],[-77.13377,39.27066],[-77.13464,39.27232],[-77.13434,39.27488],[-77.13395,39.27559],[-77.13413,39.27665],[-77.13484,39.27696],[-77.13546,39.27782],[-77.13655,39.27811],[-77.13661,39.27944],[-77.13814,39.2795],[-77.13826,39.28032],[-77.13756,39.28052],[-77.13844,39.281],[-77.14003,39.28326],[-77.13952,39.2843],[-77.13996,39.28585],[-77.13904,39.28664],[-77.13844,39.28669],[-77.13745,39.28776],[-77.13841,39.28847],[-77.14012,39.28911],[-77.14044,39.28971],[-77.14001,39.29211],[-77.14359,39.29299],[-77.14503,39.29554],[-77.14817,39.29801],[-77.14902,39.29922],[-77.15097,39.29987],[-77.15082,39.30017],[-77.15128,39.30062],[-77.152,39.30048],[-77.15356,39.30214],[-77.15593,39.30318],[-77.15636,39.30365],[-77.15972,39.3048],[-77.161,39.30684],[-77.16234,39.30796],[-77.16314,39.30793],[-77.1642,39.30732],[-77.16476,39.30782],[-77.1647,39.30882],[-77.16557,39.30962],[-77.16567,39.31097],[-77.16633,39.3118],[-77.16763,39.31241],[-77.16869,39.31209],[-77.16942,39.31231],[-77.16998,39.31323],[-77.17031,39.31312],[-77.1719,39.3153],[-77.17165,39.31559],[-77.17222,39.31631],[-77.17251,39.31845],[-77.17297,39.31879],[-77.17281,39.31926],[-77.17324,39.32052],[-77.17459,39.32176],[-77.17498,39.3226],[-77.17578,39.32301],[-77.1762,39.32412],[-77.17785,39.32494],[-77.17794,39.32556],[-77.17833,39.32562],[-77.179,39.32667],[-77.18125,39.32839],[-77.18247,39.33207],[-77.18427,39.33456],[-77.18464,39.33608],[-77.18578,39.33687],[-77.18696,39.33831],[-77.18667,39.33919],[-77.18696,39.3407],[-77.18555,39.34241],[-77.18521,39.34371],[-77.18418,39.34484],[-77.18091,39.34646],[-77.18072,39.34627],[-77.17957,39.34673],[-77.1677,39.35432],[-77.31596,39.28544],[-77.38548,39.25267],[-77.45906,39.22009],[-77.45993,39.21894],[-77.46184,39.21738],[-77.47026,39.2121],[-77.47392,39.20829],[-77.47474,39.2068],[-77.47433,39.20609],[-77.47446,39.20531],[-77.47572,39.20299],[-77.47607,39.20153],[-77.4758,39.19945],[-77.47503,39.19713],[-77.47512,39.19549],[-77.47684,39.19175],[-77.47854,39.18983],[-77.48131,39.1881],[-77.4859,39.18603],[-77.4907,39.18541],[-77.50043,39.18306],[-77.50489,39.18231],[-77.50723,39.18126],[-77.5076,39.18143],[-77.51109,39.17855],[-77.51865,39.16777],[-77.52153,39.16132],[-77.52185,39.15918],[-77.52477,39.14918],[-77.52533,39.14832],[-77.52713,39.14722],[-77.52757,39.14654],[-77.52767,39.14361],[-77.52728,39.14155],[-77.52729,39.13794],[-77.52697,39.13568],[-77.52467,39.1277],[-77.52201,39.12295],[-77.52097,39.12166],[-77.51847,39.11978],[-77.51511,39.11838],[-77.51267,39.11812],[-77.50185,39.11439],[-77.4985,39.11367],[-77.49706,39.11372],[-77.49017,39.11154],[-77.48589,39.10949],[-77.48309,39.10743],[-77.48075,39.10531],[-77.47761,39.10156],[-77.47596,39.09888],[-77.47441,39.09546],[-77.47294,39.09326],[-77.46852,39.08896],[-77.46839,39.08845],[-77.46918,39.08657],[-77.46888,39.08531],[-77.46443,39.07995],[-77.46263,39.07656],[-77.4609,39.07489],[-77.45785,39.07359],[-77.45465,39.07267],[-77.44987,39.07224],[-77.44388,39.07096],[-77.43727,39.07058],[-77.4321,39.06959],[-77.42793,39.0679],[-77.42172,39.06657],[-77.41528,39.0663],[-77.40454,39.06444],[-77.39832,39.06461],[-77.39245,39.06316],[-77.38593,39.06207],[-77.37949,39.06256],[-77.37418,39.06165],[-77.36971,39.06147],[-77.36225,39.06248],[-77.35687,39.06258],[-77.35142,39.06224],[-77.34329,39.06297],[-77.34005,39.06286],[-77.33437,39.06135],[-77.33391,39.06102],[-77.33396,39.05982],[-77.3335,39.05936],[-77.32906,39.0581],[-77.32789,39.05745],[-77.32683,39.05735],[-77.32425,39.05575],[-77.32262,39.05529],[-77.31912,39.05301],[-77.31708,39.05221],[-77.31216,39.05167],[-77.3073,39.05221],[-77.30483,39.05143],[-77.29986,39.04893],[-77.2954,39.04748],[-77.29168,39.0457],[-77.2884,39.04352],[-77.28601,39.04118],[-77.28216,39.03914],[-77.27524,39.03437],[-77.26865,39.03234],[-77.26615,39.03199],[-77.26313,39.03106],[-77.25481,39.02974],[-77.25013,39.027],[-77.24858,39.02665],[-77.24681,39.02524],[-77.24493,39.02159],[-77.24492,39.01952],[-77.24551,39.01757],[-77.2473,39.01452],[-77.25138,39.01173],[-77.25324,39.00931],[-77.25571,39.00436],[-77.25572,39.00126],[-77.25495,39.00059],[-77.25468,38.999],[-77.25435,38.99823],[-77.25367,38.99775],[-77.25366,38.99679],[-77.25319,38.99628],[-77.253,38.99545],[-77.25172,38.99508],[-77.25165,38.99482],[-77.25098,38.99507],[-77.24999,38.99462],[-77.25005,38.99397],[-77.24947,38.9937],[-77.24877,38.99271],[-77.24817,38.99045],[-77.24502,38.98268],[-77.24408,38.98206],[-77.24394,38.98228],[-77.2427,38.98198],[-77.23996,38.98076],[-77.23967,38.98004],[-77.23871,38.97955],[-77.23615,38.97679],[-77.235,38.97606],[-77.23438,38.97631],[-77.23239,38.97919],[-77.23111,38.97921],[-77.23046,38.97969],[-77.22992,38.97965],[-77.22786,38.97716],[-77.22669,38.97425],[-77.22541,38.97304],[-77.2236,38.972],[-77.22091,38.97131],[-77.2189,38.97157],[-77.21195,38.96947],[-77.20936,38.97025],[-77.2075,38.97015],[-77.20639,38.96977],[-77.20525,38.96891],[-77.20352,38.96843],[-77.20254,38.96791],[-77.20266,38.96772],[-77.19775,38.96681],[-77.19632,38.96704],[-77.19577,38.96758],[-77.19465,38.96778],[-77.19427,38.96827],[-77.19121,38.96812],[-77.18905,38.96751],[-77.18812,38.96786],[-77.18431,38.96785],[-77.18319,38.96867],[-77.18147,38.9688],[-77.17791,38.96803],[-77.17446,38.968],[-77.17221,38.96742],[-77.17117,38.96657],[-77.16942,38.96634],[-77.16738,38.96739],[-77.16457,38.96776],[-77.15991,38.96608],[-77.1581,38.96584],[-77.15706,38.96623],[-77.15113,38.96568],[-77.14763,38.96467],[-77.14514,38.96321],[-77.14077,38.95831],[-77.13926,38.95727],[-77.1352,38.95346],[-77.1312,38.94659],[-77.1285,38.94126],[-77.12436,38.93841],[-77.11965,38.93423],[-77.04104,38.99578],[-77.00247,38.96569],[-76.99891,38.97077],[-76.99917,38.97128],[-76.99859,38.9712],[-76.99813,38.97228],[-76.99779,38.97228],[-76.99614,38.97387]]]},"properties":{"COUNTY":"Montgomery"}}]}