{"type":"FeatureCollection","features":[{"type":"Feature","id":41460,"geometry":{"type":"Polygon","coordinates":[[[-77.1315,39.2041],[-77.1275,39.2063],[-77.1285,39.2074],[-77.133,39.2045],[-77.1322,39.2038],[-77.1315,39.2041]]]},"properties":{"OBJECTID":41460,"PERIMETER":null,"ACRES":16.34,"SHAPE.AREA":711571.14407916,"SHAPE.LEN":4137.142301996881,"ZONE_":"AR","CODE":"AR","ZONE1":null,"ZONING_ID":50,"BEGINDATE":1414627200000,"BEGINREASON":"G-956","BEGINPLANNER":null,"ENDDATE":null,"ENDREASON":null,"ENDPLANNER":null,"LONGZONE":"AR","RESIDENTIAL_FLAG":"Residential"}},{"type":"Feature","id":41462,"geometry":{"type":"Polygon","coordinates":[[[-77.1683,39.21],[-77.1692,39.2133],[-77.1717,39.2128],[-77.1692,39.2088],[-77.1655,39.2094],[-77.1658,39.2102],[-77.169,39.2097],[-77.1683,39.21]]]},"properties":{"OBJECTID":41462,"PERIMETER":null,"ACRES":27.14,"SHAPE.AREA":1182353.74176189,"SHAPE.LEN":6253.463965044551,"ZONE_":"AR","CODE":"AR","ZONE1":null,"ZONING_ID":50,"BEGINDATE":1414627200000,"BEGINREASON":"G-956","BEGINPLANNER":null,"ENDDATE":null,"ENDREASON":null,"ENDPLANNER":null,"LONGZONE":"AR","RESIDENTIAL_FLAG":"Residential"}},{"type":"Feature","id":53762,"geometry":{"type":"MultiPolygon","coordinates":[[[[-77.2622,39.2459],[-77.2622,39.245],[-77.2613,39.2443],[-77.2567,39.2447],[-77.2584,39.2455],[-77.2611,39.2454],[-77.2618,39.2468],[-77.2622,39.2459]]],[[[-77.2749,39.2549],[-77.2762,39.2488],[-77.2746,39.2485],[-77.2726,39.2492],[-77.2674,39.2526],[-77.265,39.2557],[-77.267,39.2527],[-77.2739,39.2485],[-77.27,39.2483],[-77.2652,39.2453],[-77.2611,39.2473],[-77.2616,39.2469],[-77.2613,39.2457],[-77.26,39.2455],[-77.2598,39.2467],[-77.2557,39.2485],[-77.2559,39.2494],[-77.255,39.2499],[-77.2557,39.2493],[-77.2555,39.2487],[-77.2533,39.2489],[-77.2552,39.2485],[-77.2549,39.2475],[-77.2518,39.2483],[-77.2529,39.2475],[-77.2547,39.2473],[-77.2533,39.2454],[-77.2513,39.2464],[-77.2516,39.247],[-77.251,39.2466],[-77.2487,39.2484],[-77.2465,39.2473],[-77.2384,39.2514],[-77.2409,39.2539],[-77.2384,39.2516],[-77.236,39.2537],[-77.2335,39.2548],[-77.2315,39.2546],[-77.2362,39.2623],[-77.2361,39.2656],[-77.2379,39.2646],[-77.2362,39.2659],[-77.2357,39.2677],[-77.2358,39.266],[-77.2358,39.2683],[-77.2346,39.271],[-77.2319,39.2735],[-77.2286,39.2787],[-77.225,39.2783],[-77.2254,39.2765],[-77.2212,39.2755],[-77.2202,39.2764],[-77.2183,39.2752],[-77.2176,39.2763],[-77.2197,39.2772],[-77.2192,39.2797],[-77.2199,39.28],[-77.2138,39.2829],[-77.2136,39.2852],[-77.2194,39.2865],[-77.2218,39.2879],[-77.2212,39.2889],[-77.2183,39.2882],[-77.2165,39.2899],[-77.2162,39.2896],[-77.2124,39.2917],[-77.211,39.2915],[-77.2088,39.2947],[-77.207,39.295],[-77.2052,39.2979],[-77.205,39.2997],[-77.2045,39.2997],[-77.2046,39.3027],[-77.2053,39.3037],[-77.204,39.3075],[-77.1994,39.3073],[-77.1989,39.3105],[-77.1996,39.3125],[-77.2012,39.3133],[-77.2002,39.3161],[-77.201,39.3189],[-77.1995,39.3195],[-77.1999,39.32],[-77.1983,39.3181],[-77.1981,39.3209],[-77.1971,39.3237],[-77.1904,39.3303],[-77.1893,39.3318],[-77.1898,39.3321],[-77.1892,39.332],[-77.1883,39.3332],[-77.1908,39.3298],[-77.1973,39.3231],[-77.1982,39.32],[-77.198,39.3171],[-77.1954,39.3182],[-77.1945,39.3171],[-77.1899,39.3169],[-77.1921,39.3147],[-77.1928,39.3147],[-77.193,39.3136],[-77.1898,39.3136],[-77.1896,39.3056],[-77.1826,39.3053],[-77.1827,39.3037],[-77.1795,39.3035],[-77.1726,39.2993],[-77.1653,39.3],[-77.1689,39.3049],[-77.1679,39.3084],[-77.1651,39.3094],[-77.1657,39.311],[-77.1669,39.3123],[-77.1696,39.3124],[-77.1713,39.3143],[-77.1732,39.3205],[-77.1763,39.3241],[-77.1778,39.3249],[-77.1779,39.3256],[-77.1815,39.3287],[-77.1824,39.332],[-77.1848,39.3363],[-77.1856,39.3367],[-77.188,39.3337],[-77.1858,39.3368],[-77.187,39.3383],[-77.187,39.3404],[-77.1852,39.3437],[-77.1717,39.3524],[-77.2439,39.319],[-77.2442,39.3164],[-77.2465,39.3134],[-77.2485,39.3143],[-77.2467,39.3136],[-77.2444,39.3165],[-77.2442,39.3188],[-77.2507,39.3156],[-77.2488,39.3144],[-77.2508,39.3156],[-77.3139,39.2864],[-77.3129,39.2859],[-77.3134,39.2848],[-77.3115,39.2841],[-77.3125,39.2805],[-77.3131,39.2798],[-77.3148,39.2798],[-77.3145,39.2783],[-77.3086,39.2733],[-77.3029,39.2618],[-77.3019,39.2558],[-77.2963,39.248],[-77.291,39.2467],[-77.288,39.2449],[-77.2853,39.2487],[-77.2821,39.2485],[-77.2808,39.2499],[-77.2764,39.2488],[-77.2763,39.2511],[-77.2749,39.2549]],[[-77.2063,39.3243],[-77.2069,39.3245],[-77.2097,39.3225],[-77.2102,39.3194],[-77.2099,39.3205],[-77.2114,39.3206],[-77.2098,39.3207],[-77.2101,39.3221],[-77.2125,39.3224],[-77.2101,39.3224],[-77.2086,39.3236],[-77.2119,39.3246],[-77.2083,39.3237],[-77.2071,39.3248],[-77.2164,39.331],[-77.2056,39.324],[-77.2063,39.3243]],[[-77.2042,39.323],[-77.2009,39.3212],[-77.2004,39.3204],[-77.2042,39.323]]],[[[-77.206,39.3218],[-77.2071,39.3189],[-77.2055,39.3229],[-77.206,39.3218]],[[-77.2341,39.3179],[-77.2378,39.3128],[-77.2297,39.3242],[-77.2307,39.3247],[-77.233,39.3235],[-77.2308,39.3248],[-77.2293,39.3243],[-77.2277,39.3249],[-77.2253,39.327],[-77.227,39.3252],[-77.2305,39.3233],[-77.2341,39.3179]],[[-77.224,39.3148],[-77.2211,39.3165],[-77.2191,39.316],[-77.2092,39.317],[-77.2074,39.3185],[-77.2085,39.3172],[-77.2099,39.3169],[-77.2177,39.3159],[-77.221,39.3163],[-77.2272,39.3128],[-77.2378,39.3109],[-77.2273,39.313],[-77.224,39.3148]],[[-77.239,39.311],[-77.2393,39.3096],[-77.2417,39.3078],[-77.2413,39.3076],[-77.243,39.3069],[-77.2418,39.3056],[-77.2391,39.3051],[-77.2409,39.3051],[-77.2429,39.3061],[-77.2446,39.3054],[-77.2447,39.3059],[-77.2473,39.3058],[-77.2472,39.3068],[-77.25,39.3066],[-77.2438,39.3078],[-77.2461,39.3121],[-77.2434,39.3076],[-77.2407,39.3086],[-77.239,39.311]],[[-77.2519,39.3053],[-77.2538,39.3048],[-77.2511,39.3058],[-77.2519,39.3053]]],[[[-77.2546,39.3121],[-77.2554,39.3105],[-77.2536,39.314],[-77.2546,39.3121]],[[-77.236,39.3021],[-77.2357,39.3012],[-77.2293,39.2988],[-77.227,39.297],[-77.2245,39.2923],[-77.2229,39.2907],[-77.2226,39.29],[-77.223,39.2904],[-77.2269,39.2863],[-77.223,39.2905],[-77.2248,39.2924],[-77.2263,39.2958],[-77.2279,39.294],[-77.2271,39.2935],[-77.228,39.2937],[-77.2284,39.2928],[-77.2325,39.2933],[-77.2317,39.2938],[-77.2303,39.293],[-77.2286,39.2931],[-77.2282,39.2938],[-77.2299,39.295],[-77.2281,39.294],[-77.2273,39.2956],[-77.2264,39.2959],[-77.2294,39.2988],[-77.2358,39.3012],[-77.2365,39.3033],[-77.236,39.3021]],[[-77.222,39.2876],[-77.2218,39.2893],[-77.222,39.2876],[-77.2213,39.2867],[-77.2219,39.2871],[-77.2239,39.2854],[-77.222,39.2876]],[[-77.2354,39.286],[-77.2335,39.285],[-77.2341,39.2846],[-77.2332,39.2831],[-77.2322,39.2831],[-77.2326,39.2827],[-77.2358,39.2818],[-77.2366,39.2821],[-77.236,39.2833],[-77.2408,39.285],[-77.2399,39.2849],[-77.238,39.2865],[-77.237,39.286],[-77.2356,39.2874],[-77.2347,39.2868],[-77.2354,39.286]],[[-77.2838,39.284],[-77.2833,39.2833],[-77.285,39.2836],[-77.2842,39.2837],[-77.2813,39.2869],[-77.2842,39.2877],[-77.2853,39.2857],[-77.2847,39.2877],[-77.2938,39.2883],[-77.2972,39.2909],[-77.298,39.2904],[-77.2974,39.2887],[-77.2977,39.288],[-77.2982,39.2904],[-77.3003,39.2904],[-77.2974,39.291],[-77.2992,39.2922],[-77.2939,39.2885],[-77.2884,39.2881],[-77.2886,39.2908],[-77.2899,39.2912],[-77.2913,39.2905],[-77.2893,39.2913],[-77.288,39.2904],[-77.288,39.2881],[-77.2848,39.2879],[-77.284,39.2946],[-77.2844,39.2957],[-77.2838,39.2946],[-77.2846,39.2877],[-77.2784,39.2864],[-77.2718,39.2861],[-77.2669,39.2895],[-77.2657,39.2913],[-77.2641,39.2923],[-77.262,39.2914],[-77.2624,39.291],[-77.2618,39.2906],[-77.2631,39.2891],[-77.2623,39.2893],[-77.2611,39.2883],[-77.2611,39.2852],[-77.2623,39.2859],[-77.2663,39.2858],[-77.2632,39.2891],[-77.2651,39.2906],[-77.2718,39.2861],[-77.281,39.2869],[-77.2838,39.284]],[[-77.2696,39.295],[-77.2704,39.296],[-77.269,39.2945],[-77.2696,39.295]],[[-77.2605,39.296],[-77.2584,39.2982],[-77.2592,39.2968],[-77.2605,39.296]],[[-77.2609,39.2955],[-77.2618,39.2939],[-77.262,39.294],[-77.2609,39.2955]],[[-77.2685,39.2939],[-77.2666,39.2922],[-77.2688,39.2941],[-77.2685,39.2939]],[[-77.243,39.2895],[-77.243,39.2902],[-77.242,39.2895],[-77.2425,39.2883],[-77.2412,39.2878],[-77.2417,39.2872],[-77.241,39.2855],[-77.2431,39.2864],[-77.2426,39.2875],[-77.2437,39.2878],[-77.243,39.2895]],[[-77.2794,39.2987],[-77.2765,39.2984],[-77.2784,39.2984],[-77.2794,39.2987]],[[-77.2575,39.2993],[-77.2577,39.2991],[-77.2576,39.2993],[-77.2575,39.2993]],[[-77.2457,39.2816],[-77.2478,39.2805],[-77.2475,39.2793],[-77.2481,39.2805],[-77.2491,39.2807],[-77.2477,39.2807],[-77.2457,39.2816]],[[-77.2509,39.2701],[-77.2504,39.2714],[-77.2503,39.2711],[-77.2509,39.2701]],[[-77.2794,39.2689],[-77.2817,39.2633],[-77.282,39.2632],[-77.2794,39.2689]],[[-77.2568,39.2639],[-77.2596,39.2608],[-77.2587,39.262],[-77.2568,39.2639]],[[-77.2794,39.2605],[-77.2762,39.2575],[-77.2781,39.2587],[-77.2794,39.2605]],[[-77.2536,39.2533],[-77.253,39.2545],[-77.2482,39.2568],[-77.2477,39.2581],[-77.248,39.2567],[-77.245,39.2562],[-77.2422,39.2545],[-77.2477,39.2566],[-77.2531,39.2543],[-77.2536,39.2525],[-77.2582,39.2545],[-77.2556,39.2534],[-77.2536,39.2533]],[[-77.2882,39.2563],[-77.2837,39.2524],[-77.2835,39.2519],[-77.2882,39.2563]],[[-77.1888,39.3267],[-77.1881,39.3266],[-77.1881,39.3265],[-77.1888,39.3267]],[[-77.1867,39.3259],[-77.1877,39.3265],[-77.1867,39.3263],[-77.1863,39.3253],[-77.1867,39.3259]],[[-77.1839,39.3231],[-77.1859,39.3242],[-77.1839,39.3235],[-77.1831,39.3222],[-77.1839,39.3231]]]]},"properties":{"OBJECTID":53762,"PERIMETER":null,"ACRES":15333.09,"SHAPE.AREA":667674379.312451,"SHAPE.LEN":437355.063952372,"ZONE_":"AR","CODE":"AR","ZONE1":null,"ZONING_ID":50,"BEGINDATE":1738540800000,"BEGINREASON":"H-151","BEGINPLANNER":"CAM","ENDDATE":null,"ENDREASON":null,"ENDPLANNER":null,"LONGZONE":"AR","RESIDENTIAL_FLAG":"Residential"}},{"type":"Feature","id":44898,"geometry":{"type":"Polygon","coordinates":[[[-77.1458,39.2778],[-77.1441,39.2785],[-77.1453,39.2791],[-77.1458,39.2778]]]},"properties":{"OBJECTID":44898,"PERIMETER":null,"ACRES":2.05,"SHAPE.AREA":89438.3459529244,"SHAPE.LEN":1516.2457572575502,"ZONE_":"AR","CODE":"AR","ZONE1":null,"ZONING_ID":50,"BEGINDATE":1414627200000,"BEGINREASON":"G-956","BEGINPLANNER":null,"ENDDATE":null,"ENDREASON":null,"ENDPLANNER":null,"LONGZONE":"AR","RESIDENTIAL_FLAG":"Residential"}},{"type":"Feature","id":44373,"geometry":{"type":"Polygon","coordinates":[[[-77.1359,39.2018],[-77.1324,39.2037],[-77.1332,39.2044],[-77.137,39.2025],[-77.1359,39.2018]]]},"properties":{"OBJECTID":44373,"PERIMETER":null,"ACRES":10.41,"SHAPE.AREA":453242.70407168,"SHAPE.LEN":3286.0737644707,"ZONE_":"AR","CODE":"AR","ZONE1":null,"ZONING_ID":50,"BEGINDATE":1414627200000,"BEGINREASON":"G-956","BEGINPLANNER":null,"ENDDATE":null,"ENDREASON":null,"ENDPLANNER":null,"LONGZONE":"AR","RESIDENTIAL_FLAG":"Residential"}},{"type":"Feature","id":41458,"geometry":{"type":"Polygon","coordinates":[[[-77.2916,39.1385],[-77.2933,39.1389],[-77.2951,39.1385],[-77.2946,39.1384],[-77.2941,39.1352],[-77.2966,39.1297],[-77.2965,39.1267],[-77.294,39.1286],[-77.2905,39.1284],[-77.29,39.1263],[-77.2889,39.125],[-77.2861,39.1246],[-77.28,39.1266],[-77.2798,39.1284],[-77.2807,39.1301],[-77.2799,39.1329],[-77.2803,39.134],[-77.2843,39.1347],[-77.2884,39.1342],[-77.2895,39.1364],[-77.2916,39.1385]]]},"properties":{"OBJECTID":41458,"PERIMETER":null,"ACRES":341.01,"SHAPE.AREA":14854565.4409774,"SHAPE.LEN":19587.851966870603,"ZONE_":"AR","CODE":"AR","ZONE1":null,"ZONING_ID":50,"BEGINDATE":1414627200000,"BEGINREASON":"G-956","BEGINPLANNER":null,"ENDDATE":null,"ENDREASON":null,"ENDPLANNER":null,"LONGZONE":"AR","RESIDENTIAL_FLAG":"Residential"}},{"type":"Feature","id":43752,"geometry":{"type":"Polygon","coordinates":[[[-77.2347,39.2407],[-77.2346,39.2408],[-77.2348,39.2409],[-77.2347,39.2407]]]},"properties":{"OBJECTID":43752,"PERIMETER":null,"ACRES":0.06,"SHAPE.AREA":2500.03086314876,"SHAPE.LEN":217.697351779649,"ZONE_":"AR","CODE":"AR","ZONE1":null,"ZONING_ID":50,"BEGINDATE":1414627200000,"BEGINREASON":"G-956","BEGINPLANNER":null,"ENDDATE":null,"ENDREASON":null,"ENDPLANNER":null,"LONGZONE":"AR","RESIDENTIAL_FLAG":"Residential"}},{"type":"Feature","id":43754,"geometry":{"type":"Polygon","coordinates":[[[-77.2579,39.2458],[-77.2552,39.2474],[-77.2555,39.2483],[-77.2598,39.2463],[-77.2596,39.2456],[-77.2579,39.2458]]]},"properties":{"OBJECTID":43754,"PERIMETER":null,"ACRES":12.96,"SHAPE.AREA":564651.871208456,"SHAPE.LEN":3656.08013739735,"ZONE_":"AR","CODE":"AR","ZONE1":null,"ZONING_ID":50,"BEGINDATE":1414627200000,"BEGINREASON":"G-956","BEGINPLANNER":null,"ENDDATE":null,"ENDREASON":null,"ENDPLANNER":null,"LONGZONE":"AR","RESIDENTIAL_FLAG":"Residential"}},{"type":"Feature","id":43124,"geometry":{"type":"Polygon","coordinates":[[[-77.1084,39.2289],[-77.1092,39.2286],[-77.1087,39.2286],[-77.1084,39.2289]]]},"properties":{"OBJECTID":43124,"PERIMETER":null,"ACRES":0.17,"SHAPE.AREA":7586.5051718864,"SHAPE.LEN":539.2161404642189,"ZONE_":"AR","CODE":"AR","ZONE1":null,"ZONING_ID":50,"BEGINDATE":1414627200000,"BEGINREASON":"G-956","BEGINPLANNER":null,"ENDDATE":null,"ENDREASON":null,"ENDPLANNER":null,"LONGZONE":"AR","RESIDENTIAL_FLAG":"Residential"}},{"type":"Feature","id":41456,"geometry":{"type":"Polygon","coordinates":[[[-77.3439,39.1286],[-77.345,39.129],[-77.3451,39.1285],[-77.3439,39.1286]]]},"properties":{"OBJECTID":41456,"PERIMETER":null,"ACRES":0.67,"SHAPE.AREA":29332.6258732959,"SHAPE.LEN":922.7495814893911,"ZONE_":"AR","CODE":"AR","ZONE1":null,"ZONING_ID":50,"BEGINDATE":1414627200000,"BEGINREASON":"G-956","BEGINPLANNER":null,"ENDDATE":null,"ENDREASON":null,"ENDPLANNER":null,"LONGZONE":"AR","RESIDENTIAL_FLAG":"Residential"}},{"type":"Feature","id":43125,"geometry":{"type":"MultiPolygon","coordinates":[[[[-77.3232,39.2206],[-77.3202,39.2204],[-77.3195,39.2229],[-77.3211,39.223],[-77.3249,39.2245],[-77.3263,39.224],[-77.325,39.2247],[-77.3243,39.2259],[-77.3242,39.2241],[-77.3195,39.2232],[-77.3143,39.2294],[-77.312,39.2311],[-77.3116,39.2328],[-77.3097,39.2351],[-77.309,39.2389],[-77.3053,39.2442],[-77.3056,39.246],[-77.2989,39.2471],[-77.3031,39.2533],[-77.313,39.2653],[-77.3157,39.2713],[-77.3192,39.2736],[-77.3206,39.2712],[-77.3197,39.2738],[-77.322,39.2754],[-77.3265,39.2767],[-77.327,39.2775],[-77.324,39.2778],[-77.3254,39.281],[-77.3526,39.2682],[-77.3483,39.2648],[-77.3527,39.2682],[-77.397,39.2474],[-77.4444,39.2266],[-77.4393,39.2232],[-77.4327,39.2219],[-77.4327,39.2227],[-77.4281,39.2222],[-77.427,39.2246],[-77.419,39.2231],[-77.4151,39.2302],[-77.4102,39.2332],[-77.4073,39.2362],[-77.4046,39.2379],[-77.4036,39.2395],[-77.4044,39.2379],[-77.4072,39.2362],[-77.41,39.2332],[-77.4148,39.2303],[-77.411,39.2279],[-77.4067,39.228],[-77.3941,39.2239],[-77.3914,39.2237],[-77.39,39.2248],[-77.3871,39.2251],[-77.3846,39.2278],[-77.3802,39.2243],[-77.3803,39.2225],[-77.3772,39.2222],[-77.3761,39.2279],[-77.3725,39.2259],[-77.373,39.2253],[-77.3721,39.2242],[-77.3737,39.2222],[-77.3737,39.2207],[-77.371,39.2206],[-77.3737,39.2206],[-77.3736,39.2187],[-77.3691,39.2187],[-77.3737,39.2187],[-77.3736,39.2158],[-77.3783,39.2162],[-77.3818,39.2098],[-77.3712,39.2063],[-77.3567,39.2156],[-77.3667,39.2208],[-77.3574,39.2212],[-77.3656,39.2208],[-77.3564,39.2156],[-77.3549,39.2167],[-77.3563,39.2156],[-77.3452,39.2086],[-77.3391,39.206],[-77.3341,39.2019],[-77.3331,39.2045],[-77.3335,39.2079],[-77.3328,39.2087],[-77.3316,39.2087],[-77.3333,39.2077],[-77.3329,39.2045],[-77.3338,39.2018],[-77.3321,39.2005],[-77.3392,39.2059],[-77.3452,39.2085],[-77.3472,39.2102],[-77.3499,39.2112],[-77.3564,39.2155],[-77.3708,39.2063],[-77.3627,39.2061],[-77.3587,39.2051],[-77.3547,39.2031],[-77.3473,39.1973],[-77.3376,39.1936],[-77.3373,39.1964],[-77.3331,39.1988],[-77.3378,39.1976],[-77.3328,39.199],[-77.3317,39.2002],[-77.3311,39.1998],[-77.3299,39.2006],[-77.3313,39.2011],[-77.329,39.2031],[-77.3269,39.2034],[-77.3264,39.206],[-77.3282,39.2087],[-77.3295,39.2159],[-77.328,39.2088],[-77.3263,39.206],[-77.3268,39.2034],[-77.3261,39.204],[-77.3254,39.2038],[-77.3217,39.207],[-77.317,39.2045],[-77.315,39.2047],[-77.313,39.2063],[-77.3154,39.2089],[-77.3133,39.2102],[-77.3188,39.2118],[-77.3185,39.2157],[-77.3162,39.2167],[-77.317,39.2178],[-77.3199,39.22],[-77.3247,39.221],[-77.3285,39.2195],[-77.3253,39.2212],[-77.3232,39.2206]],[[-77.3418,39.2666],[-77.344,39.2628],[-77.3438,39.264],[-77.34,39.2691],[-77.3378,39.2742],[-77.34,39.2689],[-77.3418,39.2666]],[[-77.3631,39.2488],[-77.3748,39.2511],[-77.3647,39.2495],[-77.365,39.2537],[-77.3645,39.2547],[-77.3675,39.2569],[-77.3645,39.2549],[-77.3627,39.2571],[-77.3627,39.2582],[-77.3622,39.2571],[-77.3601,39.2579],[-77.3626,39.257],[-77.3648,39.254],[-77.3645,39.2494],[-77.3631,39.2488]],[[-77.3451,39.2576],[-77.3449,39.2576],[-77.3462,39.2546],[-77.3451,39.2576]]],[[[-77.3207,39.2552],[-77.3194,39.256],[-77.3212,39.255],[-77.3207,39.2552]],[[-77.37,39.2281],[-77.3626,39.2336],[-77.359,39.2385],[-77.3529,39.2437],[-77.3535,39.2441],[-77.3509,39.2476],[-77.3558,39.248],[-77.3509,39.2477],[-77.3502,39.2489],[-77.3486,39.2488],[-77.3468,39.2511],[-77.3494,39.2474],[-77.3479,39.2461],[-77.3504,39.2464],[-77.359,39.2384],[-77.363,39.2331],[-77.3709,39.2273],[-77.37,39.2281]],[[-77.3324,39.2461],[-77.3333,39.2439],[-77.3263,39.2423],[-77.3318,39.2375],[-77.3337,39.2344],[-77.3408,39.2292],[-77.3336,39.2348],[-77.3318,39.2376],[-77.3267,39.2421],[-77.3338,39.2438],[-77.3398,39.2444],[-77.3338,39.244],[-77.3324,39.2461]],[[-77.3154,39.2443],[-77.3118,39.2449],[-77.3222,39.2429],[-77.3218,39.2407],[-77.3223,39.2429],[-77.3154,39.2443]],[[-77.3287,39.233],[-77.3269,39.2363],[-77.3241,39.2372],[-77.3269,39.2361],[-77.3287,39.233]],[[-77.3294,39.2314],[-77.3289,39.232],[-77.3334,39.2251],[-77.3318,39.2208],[-77.334,39.2254],[-77.3294,39.2314]],[[-77.353,39.2207],[-77.3517,39.2205],[-77.3542,39.2209],[-77.353,39.2207]],[[-77.3413,39.2284],[-77.3426,39.2269],[-77.3409,39.2289],[-77.3413,39.2284]],[[-77.3925,39.2335],[-77.3901,39.2322],[-77.3927,39.2333],[-77.3949,39.2361],[-77.3925,39.2335]],[[-77.3382,39.2197],[-77.3318,39.2194],[-77.3402,39.2197],[-77.3382,39.2197]]]]},"properties":{"OBJECTID":43125,"PERIMETER":null,"ACRES":13702.550000000001,"SHAPE.AREA":562348411.03325,"SHAPE.LEN":342716.264193934,"ZONE_":"AR","CODE":"AR","ZONE1":null,"ZONING_ID":50,"BEGINDATE":1414627200000,"BEGINREASON":"G-956","BEGINPLANNER":null,"ENDDATE":null,"ENDREASON":null,"ENDPLANNER":null,"LONGZONE":"AR","RESIDENTIAL_FLAG":"Residential"}},{"type":"Feature","id":43755,"geometry":{"type":"Polygon","coordinates":[[[-77.3233,39.2761],[-77.3252,39.2773],[-77.3265,39.2772],[-77.3217,39.2754],[-77.3233,39.2761]]]},"properties":{"OBJECTID":43755,"PERIMETER":null,"ACRES":5.87,"SHAPE.AREA":255895.33762997,"SHAPE.LEN":3251.9880264500403,"ZONE_":"AR","CODE":"AR","ZONE1":null,"ZONING_ID":50,"BEGINDATE":1414627200000,"BEGINREASON":"G-956","BEGINPLANNER":null,"ENDDATE":null,"ENDREASON":null,"ENDPLANNER":null,"LONGZONE":"AR","RESIDENTIAL_FLAG":"Residential"}},{"type":"Feature","id":42844,"geometry":{"type":"Polygon","coordinates":[[[-77.1268,39.2065],[-77.124,39.2089],[-77.1243,39.2103],[-77.1284,39.2075],[-77.1268,39.2065]]]},"properties":{"OBJECTID":42844,"PERIMETER":null,"ACRES":15.48,"SHAPE.AREA":674240.9510252,"SHAPE.LEN":3885.69022430532,"ZONE_":"AR","CODE":"AR","ZONE1":null,"ZONING_ID":50,"BEGINDATE":1414627200000,"BEGINREASON":"G-956","BEGINPLANNER":null,"ENDDATE":null,"ENDREASON":null,"ENDPLANNER":null,"LONGZONE":"AR","RESIDENTIAL_FLAG":"Residential"}},{"type":"Feature","id":41457,"geometry":{"type":"Polygon","coordinates":[[[-77.3466,39.1309],[-77.347,39.1309],[-77.3466,39.1306],[-77.3466,39.1309]]]},"properties":{"OBJECTID":41457,"PERIMETER":null,"ACRES":0.19,"SHAPE.AREA":8148.61524446783,"SHAPE.LEN":438.312922451321,"ZONE_":"AR","CODE":"AR","ZONE1":null,"ZONING_ID":50,"BEGINDATE":1414627200000,"BEGINREASON":"G-956","BEGINPLANNER":null,"ENDDATE":null,"ENDREASON":null,"ENDPLANNER":null,"LONGZONE":"AR","RESIDENTIAL_FLAG":"Residential"}},{"type":"Feature","id":46699,"geometry":{"type":"Polygon","coordinates":[[[-77.1685,39.3538],[-77.1677,39.3543],[-77.1712,39.3527],[-77.1718,39.3519],[-77.1685,39.3538]]]},"properties":{"OBJECTID":46699,"PERIMETER":null,"ACRES":2.31,"SHAPE.AREA":100420.76572903701,"SHAPE.LEN":2979.67944008511,"ZONE_":"AR","CODE":"AR","ZONE1":null,"ZONING_ID":50,"BEGINDATE":1414627200000,"BEGINREASON":"G-956","BEGINPLANNER":null,"ENDDATE":null,"ENDREASON":null,"ENDPLANNER":null,"LONGZONE":"AR","RESIDENTIAL_FLAG":"Residential"}},{"type":"Feature","id":41461,"geometry":{"type":"Polygon","coordinates":[[[-77.1344,39.2013],[-77.1298,39.2032],[-77.1266,39.2038],[-77.1235,39.2072],[-77.1239,39.2087],[-77.1266,39.2065],[-77.1358,39.2015],[-77.1352,39.2009],[-77.1344,39.2013]]]},"properties":{"OBJECTID":41461,"PERIMETER":null,"ACRES":47.42,"SHAPE.AREA":2065798.67302017,"SHAPE.LEN":9456.289938880189,"ZONE_":"AR","CODE":"AR","ZONE1":null,"ZONING_ID":50,"BEGINDATE":1414627200000,"BEGINREASON":"G-956","BEGINPLANNER":null,"ENDDATE":null,"ENDREASON":null,"ENDPLANNER":null,"LONGZONE":"AR","RESIDENTIAL_FLAG":"Residential"}},{"type":"Feature","id":58249,"geometry":{"type":"Polygon","coordinates":[[[-77.4103,39.2276],[-77.415,39.2302],[-77.4189,39.223],[-77.4176,39.2225],[-77.4186,39.2202],[-77.4113,39.2202],[-77.3995,39.2161],[-77.395,39.2139],[-77.3902,39.2128],[-77.3821,39.2097],[-77.3816,39.2101],[-77.3806,39.2123],[-77.3817,39.2127],[-77.38,39.2159],[-77.3826,39.2164],[-77.3864,39.2187],[-77.3838,39.2192],[-77.3835,39.2214],[-77.3951,39.2239],[-77.4076,39.2277],[-77.4103,39.2276]]]},"properties":{"OBJECTID":58249,"PERIMETER":null,"ACRES":13702.550000000001,"SHAPE.AREA":34444007.9854995,"SHAPE.LEN":31894.9814863489,"ZONE_":"AR","CODE":"AR","ZONE1":null,"ZONING_ID":50,"BEGINDATE":1414627200000,"BEGINREASON":"G-956","BEGINPLANNER":null,"ENDDATE":null,"ENDREASON":null,"ENDPLANNER":null,"LONGZONE":"AR","RESIDENTIAL_FLAG":"Residential"}},{"type":"Feature","id":43750,"geometry":{"type":"Polygon","coordinates":[[[-77.167,39.2102],[-77.1658,39.2105],[-77.1666,39.2133],[-77.1689,39.2134],[-77.1681,39.21],[-77.167,39.2102]]]},"properties":{"OBJECTID":43750,"PERIMETER":null,"ACRES":19.23,"SHAPE.AREA":837491.72911797,"SHAPE.LEN":3744.0037193379203,"ZONE_":"AR","CODE":"AR","ZONE1":null,"ZONING_ID":50,"BEGINDATE":1414627200000,"BEGINREASON":"G-956","BEGINPLANNER":null,"ENDDATE":null,"ENDREASON":null,"ENDPLANNER":null,"LONGZONE":"AR","RESIDENTIAL_FLAG":"Residential"}},{"type":"Feature","id":43751,"geometry":{"type":"Polygon","coordinates":[[[-77.4065,39.2182],[-77.4077,39.2185],[-77.403,39.2167],[-77.4065,39.2182]]]},"properties":{"OBJECTID":43751,"PERIMETER":null,"ACRES":4.82,"SHAPE.AREA":209928.949689542,"SHAPE.LEN":3093.2702412232898,"ZONE_":"AR","CODE":"AR","ZONE1":null,"ZONING_ID":50,"BEGINDATE":1414627200000,"BEGINREASON":"G-956","BEGINPLANNER":null,"ENDDATE":null,"ENDREASON":null,"ENDPLANNER":null,"LONGZONE":"AR","RESIDENTIAL_FLAG":"Residential"}},{"type":"Feature","id":43123,"geometry":{"type":"MultiPolygon","coordinates":[[[[-77.4026,39.1987],[-77.4016,39.1966],[-77.3977,39.1946],[-77.4037,39.1884],[-77.4025,39.1901],[-77.4034,39.1906],[-77.403,39.1911],[-77.405,39.1923],[-77.4051,39.1963],[-77.4083,39.1964],[-77.4083,39.1993],[-77.409,39.2001],[-77.4112,39.1996],[-77.4112,39.2003],[-77.4092,39.2006],[-77.4113,39.2061],[-77.4167,39.2068],[-77.4162,39.2084],[-77.4186,39.21],[-77.4185,39.2116],[-77.4232,39.2154],[-77.4242,39.2146],[-77.424,39.2153],[-77.425,39.2157],[-77.4228,39.2163],[-77.4284,39.2162],[-77.4291,39.2171],[-77.4284,39.2178],[-77.4288,39.2181],[-77.4278,39.2182],[-77.4265,39.2194],[-77.4325,39.221],[-77.4324,39.2216],[-77.4394,39.223],[-77.4447,39.2266],[-77.4593,39.2197],[-77.4619,39.2174],[-77.4703,39.212],[-77.4739,39.2083],[-77.4761,39.2015],[-77.4751,39.1955],[-77.4768,39.1918],[-77.4785,39.1898],[-77.4859,39.186],[-77.5048,39.1824],[-77.5082,39.1811],[-77.5111,39.1786],[-77.5162,39.1716],[-77.5212,39.1622],[-77.5248,39.1492],[-77.5276,39.1466],[-77.5271,39.1365],[-77.524,39.1262],[-77.521,39.1217],[-77.5176,39.1194],[-77.5018,39.1144],[-77.4971,39.1137],[-77.4902,39.1116],[-77.4831,39.1074],[-77.4776,39.1016],[-77.4729,39.0933],[-77.4685,39.089],[-77.4692,39.0866],[-77.4689,39.0853],[-77.4644,39.08],[-77.4625,39.0764],[-77.4608,39.0748],[-77.4579,39.0736],[-77.4449,39.0711],[-77.4322,39.0696],[-77.4279,39.0679],[-77.4212,39.0665],[-77.4152,39.0663],[-77.4045,39.0645],[-77.3983,39.0646],[-77.3859,39.0621],[-77.3797,39.0626],[-77.3697,39.0615],[-77.3623,39.0625],[-77.3514,39.0623],[-77.341,39.063],[-77.3411,39.0685],[-77.3419,39.0727],[-77.3417,39.0769],[-77.3406,39.0788],[-77.3424,39.0798],[-77.3684,39.083],[-77.375,39.0807],[-77.3799,39.0804],[-77.3796,39.0808],[-77.3935,39.0843],[-77.4078,39.0855],[-77.4079,39.0844],[-77.4074,39.084],[-77.409,39.0843],[-77.4082,39.0844],[-77.4083,39.0855],[-77.4139,39.0849],[-77.4199,39.0852],[-77.4184,39.0853],[-77.4184,39.0859],[-77.418,39.0854],[-77.4139,39.0859],[-77.4119,39.0854],[-77.4081,39.0859],[-77.4075,39.0926],[-77.4053,39.101],[-77.4074,39.0927],[-77.4077,39.0858],[-77.3928,39.0846],[-77.3778,39.0808],[-77.3749,39.081],[-77.3684,39.0833],[-77.3608,39.0821],[-77.3532,39.0817],[-77.3467,39.0804],[-77.3445,39.0803],[-77.3444,39.0809],[-77.3433,39.0806],[-77.3442,39.0803],[-77.3409,39.0795],[-77.341,39.0803],[-77.34,39.0797],[-77.3406,39.0794],[-77.3402,39.0791],[-77.3374,39.0802],[-77.3362,39.0811],[-77.3342,39.0853],[-77.3319,39.0871],[-77.3296,39.0876],[-77.3293,39.0911],[-77.3306,39.0914],[-77.3353,39.0884],[-77.3368,39.0883],[-77.3375,39.0905],[-77.3395,39.0919],[-77.3396,39.0929],[-77.3418,39.0956],[-77.3435,39.1013],[-77.3436,39.103],[-77.3425,39.1037],[-77.3424,39.1048],[-77.3362,39.1056],[-77.3339,39.1102],[-77.3317,39.1105],[-77.3321,39.1159],[-77.3343,39.1215],[-77.3352,39.127],[-77.3358,39.1282],[-77.3445,39.1284],[-77.3442,39.1266],[-77.3467,39.1281],[-77.3467,39.1265],[-77.3475,39.1265],[-77.3476,39.1283],[-77.3485,39.1287],[-77.3472,39.1284],[-77.3461,39.13],[-77.3568,39.139],[-77.3579,39.1449],[-77.3592,39.1472],[-77.3579,39.1453],[-77.3566,39.1391],[-77.347,39.131],[-77.3463,39.1318],[-77.3449,39.1306],[-77.3459,39.1299],[-77.3444,39.1289],[-77.3358,39.1283],[-77.3351,39.131],[-77.3329,39.1314],[-77.3328,39.1322],[-77.3298,39.1323],[-77.3281,39.1318],[-77.3271,39.1289],[-77.325,39.1283],[-77.3186,39.1277],[-77.3159,39.128],[-77.3072,39.1252],[-77.306,39.1257],[-77.306,39.1269],[-77.304,39.1278],[-77.2996,39.1252],[-77.299,39.1259],[-77.2972,39.1259],[-77.2965,39.1267],[-77.297,39.1279],[-77.2965,39.1304],[-77.2946,39.1349],[-77.2951,39.1384],[-77.3022,39.143],[-77.3066,39.1364],[-77.3077,39.1331],[-77.3067,39.1363],[-77.3022,39.1431],[-77.3075,39.1465],[-77.304,39.1487],[-77.3011,39.1458],[-77.301,39.1439],[-77.2986,39.1445],[-77.297,39.1427],[-77.2956,39.1435],[-77.2978,39.1449],[-77.2978,39.1475],[-77.2988,39.1485],[-77.2983,39.1496],[-77.3,39.1513],[-77.3014,39.1518],[-77.3016,39.1535],[-77.3046,39.1565],[-77.3117,39.157],[-77.3136,39.1562],[-77.316,39.1572],[-77.3162,39.1587],[-77.317,39.159],[-77.3172,39.1598],[-77.317,39.1624],[-77.3162,39.1634],[-77.3183,39.1649],[-77.3201,39.1655],[-77.3219,39.1644],[-77.3244,39.1661],[-77.327,39.1665],[-77.3279,39.1663],[-77.3291,39.1647],[-77.3325,39.1651],[-77.3355,39.1667],[-77.3341,39.1703],[-77.3303,39.1738],[-77.3373,39.1859],[-77.3379,39.1881],[-77.3368,39.192],[-77.3392,39.1907],[-77.3377,39.1867],[-77.342,39.1879],[-77.3407,39.1895],[-77.3419,39.1896],[-77.3403,39.1899],[-77.3367,39.1925],[-77.342,39.1942],[-77.3422,39.1931],[-77.3571,39.204],[-77.3614,39.2054],[-77.3709,39.2059],[-77.372,39.205],[-77.3718,39.2033],[-77.372,39.2059],[-77.3728,39.2063],[-77.3801,39.2075],[-77.3813,39.2091],[-77.3825,39.2092],[-77.3822,39.2095],[-77.3953,39.2134],[-77.4023,39.2164],[-77.4053,39.2169],[-77.4094,39.2193],[-77.4119,39.2199],[-77.4187,39.2199],[-77.4193,39.2177],[-77.4207,39.218],[-77.4206,39.2166],[-77.4215,39.2169],[-77.4216,39.2162],[-77.4227,39.2163],[-77.4214,39.2156],[-77.4217,39.215],[-77.4203,39.2153],[-77.4215,39.2147],[-77.4184,39.2117],[-77.4183,39.2102],[-77.4158,39.2085],[-77.4163,39.2075],[-77.4159,39.2068],[-77.4119,39.2062],[-77.408,39.207],[-77.4082,39.2085],[-77.407,39.2078],[-77.4059,39.2043],[-77.4043,39.2041],[-77.4026,39.1987],[-77.4006,39.2054],[-77.3984,39.2051],[-77.398,39.2068],[-77.3926,39.2059],[-77.3934,39.2011],[-77.3951,39.1991],[-77.3964,39.1994],[-77.3954,39.2017],[-77.399,39.2022],[-77.3997,39.1987],[-77.4026,39.1987]],[[-77.3572,39.1933],[-77.3646,39.1955],[-77.3622,39.1952],[-77.355,39.1928],[-77.3512,39.1901],[-77.355,39.1926],[-77.3572,39.1933]],[[-77.3842,39.1885],[-77.3842,39.187],[-77.3823,39.1865],[-77.383,39.1853],[-77.3826,39.1864],[-77.3845,39.1871],[-77.3842,39.1885]],[[-77.3491,39.1855],[-77.3481,39.1842],[-77.3488,39.1837],[-77.3491,39.1855]],[[-77.4058,39.1833],[-77.4059,39.1804],[-77.4068,39.1808],[-77.4077,39.1792],[-77.4096,39.1797],[-77.4111,39.1772],[-77.4122,39.1775],[-77.4127,39.1771],[-77.4139,39.175],[-77.4122,39.1746],[-77.4125,39.1742],[-77.4153,39.1747],[-77.4157,39.174],[-77.4167,39.1704],[-77.4148,39.1694],[-77.4142,39.1703],[-77.4145,39.1692],[-77.4135,39.1687],[-77.4166,39.1697],[-77.419,39.1617],[-77.4187,39.1572],[-77.4178,39.1541],[-77.4157,39.1518],[-77.4161,39.1542],[-77.4117,39.1559],[-77.4101,39.1547],[-77.4095,39.156],[-77.4086,39.1561],[-77.4077,39.1583],[-77.4117,39.1588],[-77.4085,39.1629],[-77.4088,39.1642],[-77.4081,39.1653],[-77.4072,39.1653],[-77.4061,39.1668],[-77.4034,39.1661],[-77.4042,39.1638],[-77.4018,39.1634],[-77.4029,39.1626],[-77.4,39.1627],[-77.3996,39.1597],[-77.3985,39.1599],[-77.3976,39.1578],[-77.3962,39.1598],[-77.395,39.1593],[-77.3955,39.1586],[-77.3947,39.1583],[-77.3943,39.157],[-77.3891,39.156],[-77.3885,39.1577],[-77.3872,39.1625],[-77.391,39.1677],[-77.3941,39.1685],[-77.3913,39.1681],[-77.387,39.1625],[-77.3902,39.1537],[-77.3961,39.1546],[-77.3908,39.142],[-77.3882,39.1421],[-77.3895,39.1385],[-77.3926,39.1392],[-77.395,39.1324],[-77.3964,39.1326],[-77.3942,39.1279],[-77.3985,39.1275],[-77.402,39.1284],[-77.4015,39.1205],[-77.4063,39.1216],[-77.4072,39.1234],[-77.4075,39.123],[-77.4149,39.1227],[-77.4154,39.1233],[-77.4156,39.1347],[-77.4228,39.1347],[-77.4236,39.1313],[-77.4263,39.1311],[-77.4273,39.1365],[-77.4245,39.1375],[-77.4277,39.143],[-77.4276,39.1445],[-77.4246,39.1456],[-77.4237,39.1468],[-77.4334,39.148],[-77.4389,39.1523],[-77.4368,39.1507],[-77.4357,39.1547],[-77.4321,39.1585],[-77.4339,39.1584],[-77.4339,39.1626],[-77.4278,39.1622],[-77.4293,39.1584],[-77.428,39.1581],[-77.428,39.1547],[-77.427,39.1543],[-77.4244,39.1506],[-77.4197,39.1494],[-77.4197,39.1502],[-77.4188,39.1501],[-77.4181,39.1517],[-77.4157,39.1514],[-77.418,39.1543],[-77.4189,39.1573],[-77.4192,39.1618],[-77.4161,39.1729],[-77.4173,39.1731],[-77.4173,39.1769],[-77.4156,39.1768],[-77.4164,39.1783],[-77.424,39.1779],[-77.4294,39.1785],[-77.4171,39.1782],[-77.4176,39.1793],[-77.4167,39.1798],[-77.4173,39.1805],[-77.4155,39.1815],[-77.4356,39.2062],[-77.4448,39.2041],[-77.4453,39.1988],[-77.4451,39.2041],[-77.4468,39.2043],[-77.4474,39.2054],[-77.4467,39.2044],[-77.4451,39.2043],[-77.4354,39.2064],[-77.4161,39.1827],[-77.4142,39.1833],[-77.4137,39.181],[-77.413,39.1806],[-77.4135,39.1797],[-77.4125,39.1798],[-77.4109,39.1813],[-77.4102,39.1839],[-77.4097,39.1837],[-77.4096,39.1817],[-77.4064,39.1828],[-77.4057,39.1844],[-77.4058,39.1833]],[[-77.3399,39.1817],[-77.3394,39.1827],[-77.3398,39.1815],[-77.3392,39.1787],[-77.3399,39.1817]],[[-77.3546,39.1801],[-77.3585,39.1768],[-77.3596,39.1739],[-77.3594,39.1757],[-77.3571,39.1788],[-77.3546,39.1801]],[[-77.3657,39.1755],[-77.3656,39.1737],[-77.3659,39.1733],[-77.3657,39.1755]],[[-77.4053,39.1753],[-77.404,39.1742],[-77.403,39.1719],[-77.4048,39.1746],[-77.4071,39.1758],[-77.4053,39.1753]],[[-77.3676,39.1773],[-77.3667,39.1768],[-77.3684,39.1776],[-77.3676,39.1773]],[[-77.3714,39.1791],[-77.3704,39.1785],[-77.3759,39.1814],[-77.3714,39.1791]],[[-77.3593,39.1708],[-77.3594,39.1718],[-77.3593,39.1706],[-77.3593,39.1708]],[[-77.395,39.1685],[-77.3943,39.1686],[-77.3943,39.1684],[-77.395,39.1685]],[[-77.3623,39.16],[-77.3623,39.1625],[-77.3621,39.1598],[-77.3623,39.16]],[[-77.3617,39.1568],[-77.3612,39.1534],[-77.3617,39.1502],[-77.3641,39.1526],[-77.3666,39.1538],[-77.3643,39.153],[-77.3616,39.1506],[-77.3617,39.1568]],[[-77.341,39.1538],[-77.3395,39.1531],[-77.3399,39.1531],[-77.341,39.1538]],[[-77.341,39.1537],[-77.3415,39.1533],[-77.3413,39.1498],[-77.3417,39.1533],[-77.341,39.1537]],[[-77.3703,39.1556],[-77.3677,39.1542],[-77.3706,39.1555],[-77.3703,39.1556]],[[-77.3519,39.1277],[-77.3507,39.1279],[-77.3542,39.1268],[-77.3519,39.1277]],[[-77.3655,39.124],[-77.3672,39.1197],[-77.3683,39.119],[-77.3671,39.1203],[-77.3658,39.1239],[-77.3692,39.1237],[-77.3734,39.1243],[-77.3635,39.1243],[-77.3566,39.1256],[-77.3655,39.124]],[[-77.4013,39.1184],[-77.4016,39.119],[-77.4014,39.119],[-77.4013,39.1184]],[[-77.4221,39.1158],[-77.4212,39.111],[-77.4218,39.1076],[-77.4214,39.1138],[-77.4243,39.1209],[-77.4243,39.1272],[-77.4243,39.1209],[-77.4221,39.1158]],[[-77.4013,39.116],[-77.4011,39.115],[-77.4012,39.115],[-77.4013,39.116]],[[-77.4037,39.1155],[-77.4038,39.1154],[-77.4043,39.1168],[-77.4037,39.1155]],[[-77.3797,39.1089],[-77.3805,39.1144],[-77.3792,39.1076],[-77.3766,39.1056],[-77.3792,39.1073],[-77.3797,39.1089]],[[-77.3495,39.1065],[-77.3494,39.1055],[-77.3479,39.1054],[-77.3495,39.1053],[-77.3499,39.1032],[-77.3495,39.1065]],[[-77.3667,39.1044],[-77.3714,39.1021],[-77.3694,39.0999],[-77.3718,39.1021],[-77.366,39.1052],[-77.3637,39.1046],[-77.3657,39.105],[-77.3667,39.1044]],[[-77.3501,39.1011],[-77.3502,39.0997],[-77.3487,39.0992],[-77.3504,39.0992],[-77.3501,39.1011]],[[-77.3755,39.0992],[-77.3791,39.0962],[-77.3822,39.098],[-77.3768,39.1002],[-77.3755,39.0992]],[[-77.3846,39.0988],[-77.3827,39.0976],[-77.3925,39.0902],[-77.3957,39.0965],[-77.3918,39.1031],[-77.3893,39.106],[-77.3881,39.1054],[-77.3908,39.1024],[-77.3866,39.0994],[-77.3846,39.0988]],[[-77.4477,39.1052],[-77.4481,39.1045],[-77.4446,39.0965],[-77.4451,39.0935],[-77.4448,39.0967],[-77.4482,39.1045],[-77.4462,39.1079],[-77.4476,39.1128],[-77.4486,39.1132],[-77.4533,39.1122],[-77.459,39.1163],[-77.461,39.1144],[-77.4577,39.1182],[-77.4589,39.1164],[-77.4531,39.1125],[-77.4476,39.1135],[-77.4471,39.1117],[-77.4337,39.1139],[-77.4469,39.1116],[-77.446,39.1079],[-77.4477,39.1052]],[[-77.4181,39.0943],[-77.4178,39.0881],[-77.4183,39.0893],[-77.4181,39.0943]],[[-77.4526,39.1269],[-77.453,39.1265],[-77.4523,39.1305],[-77.4526,39.1269]],[[-77.3811,39.1198],[-77.3807,39.1216],[-77.3809,39.1192],[-77.3811,39.1198]]],[[[-77.4714,39.1343],[-77.4725,39.1338],[-77.4694,39.1351],[-77.4714,39.1343]],[[-77.4607,39.1352],[-77.4641,39.1358],[-77.4693,39.1357],[-77.464,39.1359],[-77.4567,39.1345],[-77.4607,39.1352]],[[-77.4516,39.1416],[-77.4503,39.1381],[-77.4525,39.1436],[-77.4516,39.1416]],[[-77.5088,39.1432],[-77.5067,39.14],[-77.5073,39.1398],[-77.5099,39.1463],[-77.5076,39.1499],[-77.5073,39.1514],[-77.5088,39.1516],[-77.5071,39.1516],[-77.5074,39.15],[-77.5098,39.1465],[-77.5088,39.1432]],[[-77.4401,39.1534],[-77.4399,39.1531],[-77.45,39.1579],[-77.4401,39.1534]],[[-77.4814,39.1563],[-77.4802,39.1559],[-77.4843,39.1565],[-77.4831,39.1575],[-77.4811,39.1573],[-77.4814,39.1563]],[[-77.4827,39.1578],[-77.4797,39.1625],[-77.4799,39.1648],[-77.4762,39.1644],[-77.476,39.166],[-77.4751,39.1656],[-77.4749,39.1663],[-77.4735,39.166],[-77.4739,39.1636],[-77.469,39.1634],[-77.4664,39.1639],[-77.4676,39.1619],[-77.4616,39.1618],[-77.4588,39.1611],[-77.4622,39.1617],[-77.4713,39.1619],[-77.4702,39.1564],[-77.4706,39.1574],[-77.4714,39.1574],[-77.4715,39.1585],[-77.4722,39.1584],[-77.4724,39.1593],[-77.4726,39.1585],[-77.4736,39.1587],[-77.4718,39.1601],[-77.4731,39.1602],[-77.4738,39.1614],[-77.4727,39.1629],[-77.4759,39.163],[-77.4756,39.1642],[-77.4763,39.1644],[-77.4766,39.1637],[-77.4784,39.1639],[-77.4774,39.1631],[-77.4778,39.1618],[-77.4784,39.1617],[-77.4775,39.158],[-77.4807,39.1585],[-77.481,39.1575],[-77.4827,39.1578]],[[-77.4889,39.1641],[-77.4931,39.1632],[-77.4966,39.1635],[-77.4937,39.1633],[-77.4889,39.1641]]],[[[-77.4992,39.164],[-77.498,39.1637],[-77.5024,39.165],[-77.4992,39.164]],[[-77.4854,39.1646],[-77.4844,39.1647],[-77.4844,39.1646],[-77.4854,39.1646]],[[-77.4488,39.1652],[-77.4479,39.1689],[-77.4457,39.1721],[-77.4479,39.1686],[-77.449,39.1648],[-77.4488,39.1652]],[[-77.4721,39.1699],[-77.4721,39.1698],[-77.4738,39.1698],[-77.4721,39.1699]],[[-77.4759,39.171],[-77.4784,39.1715],[-77.4776,39.1734],[-77.4755,39.1732],[-77.4759,39.171]],[[-77.4493,39.1642],[-77.4492,39.1642],[-77.4496,39.1635],[-77.4493,39.1642]],[[-77.451,39.1607],[-77.4509,39.161],[-77.4508,39.161],[-77.451,39.1607]],[[-77.4512,39.1605],[-77.4517,39.1597],[-77.4514,39.1602],[-77.4512,39.1605]],[[-77.4436,39.1777],[-77.4333,39.1788],[-77.4308,39.1786],[-77.4436,39.1777]],[[-77.4675,39.1833],[-77.4677,39.1839],[-77.4675,39.1839],[-77.4675,39.1833]],[[-77.4471,39.1873],[-77.4471,39.1862],[-77.4471,39.1879],[-77.4471,39.1873]],[[-77.4667,39.1884],[-77.4669,39.1882],[-77.4667,39.1886],[-77.4667,39.1884]],[[-77.4453,39.1988],[-77.4497,39.1947],[-77.446,39.1919],[-77.4466,39.1896],[-77.4463,39.1918],[-77.4496,39.1944],[-77.4536,39.1941],[-77.4595,39.195],[-77.4534,39.1941],[-77.4507,39.1944],[-77.4453,39.1988]],[[-77.4661,39.1936],[-77.4659,39.1904],[-77.4664,39.1896],[-77.4661,39.1936]],[[-77.4607,39.2039],[-77.4683,39.2066],[-77.4652,39.2111],[-77.4631,39.2105],[-77.4594,39.2143],[-77.4564,39.2136],[-77.4553,39.2147],[-77.4547,39.2144],[-77.4514,39.2176],[-77.4486,39.2159],[-77.4498,39.2086],[-77.4505,39.2085],[-77.4516,39.2067],[-77.4549,39.206],[-77.4574,39.207],[-77.4582,39.2083],[-77.4607,39.2039]],[[-77.4339,39.2076],[-77.4318,39.2096],[-77.4294,39.2141],[-77.4321,39.209],[-77.4347,39.2069],[-77.4339,39.2076]],[[-77.4056,39.1851],[-77.4053,39.1865],[-77.4052,39.1865],[-77.4056,39.1851]],[[-77.383,39.1853],[-77.3809,39.1845],[-77.3831,39.1852],[-77.383,39.1853]],[[-77.4363,39.0867],[-77.4373,39.0871],[-77.4332,39.0857],[-77.4363,39.0867]],[[-77.3711,39.2025],[-77.3708,39.2016],[-77.3715,39.2],[-77.3704,39.1993],[-77.3717,39.1997],[-77.3722,39.1992],[-77.371,39.2015],[-77.3711,39.2025]],[[-77.3917,39.2025],[-77.3929,39.2017],[-77.3913,39.2028],[-77.3917,39.2025]]]]},"properties":{"OBJECTID":43123,"PERIMETER":null,"ACRES":54411.82,"SHAPE.AREA":2369920761.9352,"SHAPE.LEN":884803.4289166421,"ZONE_":"AR","CODE":"AR","ZONE1":null,"ZONING_ID":50,"BEGINDATE":1414627200000,"BEGINREASON":"G-956","BEGINPLANNER":null,"ENDDATE":null,"ENDREASON":null,"ENDPLANNER":null,"LONGZONE":"AR","RESIDENTIAL_FLAG":"Residential"}},{"type":"Feature","id":43126,"geometry":{"type":"MultiPolygon","coordinates":[[[[-77.0656,39.2],[-77.0639,39.2033],[-77.0638,39.2068],[-77.0627,39.2106],[-77.0611,39.213],[-77.0613,39.2175],[-77.0598,39.2215],[-77.0621,39.2236],[-77.0641,39.2244],[-77.0648,39.2236],[-77.0645,39.2248],[-77.066,39.2254],[-77.0663,39.2246],[-77.0669,39.2249],[-77.0666,39.2256],[-77.068,39.2262],[-77.071,39.2255],[-77.0701,39.2229],[-77.069,39.222],[-77.0703,39.2226],[-77.0715,39.2216],[-77.0695,39.2173],[-77.0717,39.2213],[-77.0704,39.2229],[-77.0713,39.2254],[-77.0854,39.2218],[-77.0871,39.2173],[-77.0885,39.2165],[-77.0893,39.2151],[-77.0886,39.2165],[-77.0871,39.2175],[-77.0856,39.2218],[-77.0953,39.2195],[-77.1001,39.2194],[-77.1109,39.2164],[-77.1202,39.2148],[-77.1245,39.2148],[-77.1097,39.2169],[-77.1005,39.2195],[-77.0928,39.2202],[-77.0773,39.2239],[-77.0762,39.2268],[-77.083,39.2293],[-77.0898,39.2294],[-77.0932,39.2316],[-77.0898,39.2295],[-77.0831,39.2295],[-77.076,39.2271],[-77.0727,39.2337],[-77.0759,39.2271],[-77.0729,39.2263],[-77.072,39.2263],[-77.0716,39.2274],[-77.0712,39.2264],[-77.0708,39.2272],[-77.0667,39.2271],[-77.0668,39.2265],[-77.0658,39.226],[-77.0662,39.2255],[-77.0649,39.225],[-77.0646,39.2254],[-77.0646,39.2249],[-77.0632,39.2242],[-77.0625,39.2257],[-77.0588,39.225],[-77.0576,39.2291],[-77.0608,39.229],[-77.0576,39.2291],[-77.0558,39.2349],[-77.0558,39.2384],[-77.0576,39.2403],[-77.059,39.2407],[-77.0599,39.2402],[-77.0615,39.2415],[-77.0607,39.2435],[-77.0614,39.244],[-77.0609,39.245],[-77.0624,39.2468],[-77.0622,39.2473],[-77.0658,39.2495],[-77.0655,39.2505],[-77.0662,39.2515],[-77.0673,39.2516],[-77.0687,39.253],[-77.0696,39.2526],[-77.0697,39.2538],[-77.0712,39.255],[-77.0745,39.2562],[-77.0776,39.2564],[-77.0801,39.2596],[-77.0855,39.2605],[-77.0891,39.2624],[-77.093,39.2626],[-77.096,39.2636],[-77.0973,39.2649],[-77.0987,39.2647],[-77.1035,39.266],[-77.1061,39.2641],[-77.1093,39.2648],[-77.111,39.2642],[-77.1124,39.2651],[-77.1142,39.2649],[-77.117,39.2677],[-77.1205,39.2671],[-77.1253,39.2687],[-77.1306,39.2684],[-77.1314,39.2702],[-77.1342,39.2713],[-77.1346,39.273],[-77.1341,39.2767],[-77.1365,39.2781],[-77.1364,39.2793],[-77.14,39.2831],[-77.1395,39.2844],[-77.1399,39.2858],[-77.1374,39.2879],[-77.14,39.2891],[-77.14,39.2921],[-77.1435,39.293],[-77.145,39.2955],[-77.149,39.2993],[-77.1509,39.2999],[-77.1563,39.3037],[-77.1596,39.3048],[-77.1623,39.308],[-77.1644,39.3074],[-77.1651,39.3094],[-77.1678,39.3082],[-77.1686,39.3049],[-77.1646,39.2991],[-77.1652,39.2998],[-77.1721,39.2991],[-77.1736,39.2995],[-77.1756,39.2982],[-77.1747,39.2975],[-77.1736,39.2979],[-77.1751,39.2968],[-77.1748,39.2973],[-77.1759,39.2981],[-77.1769,39.2973],[-77.1794,39.2934],[-77.177,39.2914],[-77.1774,39.2908],[-77.1787,39.2907],[-77.1811,39.2843],[-77.1737,39.282],[-77.1735,39.2833],[-77.1734,39.2818],[-77.1691,39.2799],[-77.1667,39.278],[-77.1679,39.2722],[-77.1601,39.2701],[-77.1571,39.2671],[-77.156,39.2646],[-77.1567,39.262],[-77.1606,39.2588],[-77.161,39.2567],[-77.1644,39.2531],[-77.1659,39.2523],[-77.1667,39.2506],[-77.1648,39.2485],[-77.1632,39.2479],[-77.1566,39.2477],[-77.1555,39.2512],[-77.1562,39.2477],[-77.1439,39.2465],[-77.144,39.2513],[-77.1446,39.2514],[-77.1447,39.2524],[-77.144,39.2524],[-77.1446,39.2538],[-77.144,39.2538],[-77.1477,39.2582],[-77.1497,39.2619],[-77.151,39.2614],[-77.1499,39.2588],[-77.1512,39.2613],[-77.1525,39.2596],[-77.1513,39.2616],[-77.1523,39.2625],[-77.1542,39.2612],[-77.1538,39.2615],[-77.1544,39.262],[-77.1536,39.2617],[-77.152,39.2633],[-77.1522,39.2626],[-77.1511,39.2617],[-77.1499,39.2621],[-77.1506,39.2654],[-77.1543,39.2723],[-77.1567,39.2745],[-77.1556,39.2741],[-77.1555,39.2748],[-77.1594,39.2785],[-77.1591,39.2787],[-77.16,39.2799],[-77.1554,39.2749],[-77.1522,39.2695],[-77.1474,39.2734],[-77.1454,39.2793],[-77.1376,39.2759],[-77.1344,39.2767],[-77.1373,39.2757],[-77.1415,39.2777],[-77.1449,39.2782],[-77.1458,39.2775],[-77.1475,39.2731],[-77.1524,39.2692],[-77.1507,39.2667],[-77.1493,39.2614],[-77.1471,39.2576],[-77.1454,39.2562],[-77.1447,39.2566],[-77.1443,39.2562],[-77.145,39.2557],[-77.1399,39.2527],[-77.141,39.2532],[-77.1427,39.2526],[-77.1431,39.251],[-77.1438,39.2508],[-77.1429,39.2376],[-77.1439,39.2462],[-77.1542,39.2474],[-77.154,39.2439],[-77.1548,39.2426],[-77.1654,39.2382],[-77.155,39.2427],[-77.1542,39.2439],[-77.1544,39.2468],[-77.1545,39.2474],[-77.1639,39.2479],[-77.1667,39.2505],[-77.1682,39.25],[-77.1692,39.2471],[-77.1702,39.247],[-77.1709,39.2456],[-77.1727,39.2445],[-77.1731,39.2431],[-77.1724,39.2425],[-77.1725,39.2411],[-77.1741,39.2391],[-77.1759,39.2386],[-77.1766,39.2377],[-77.1797,39.237],[-77.1807,39.2357],[-77.1823,39.2384],[-77.1869,39.235],[-77.1925,39.2333],[-77.1992,39.2348],[-77.2034,39.2342],[-77.205,39.2321],[-77.2068,39.2257],[-77.2061,39.2299],[-77.2083,39.2298],[-77.2094,39.2276],[-77.2129,39.2281],[-77.2093,39.2278],[-77.2086,39.2299],[-77.212,39.2302],[-77.2107,39.2306],[-77.207,39.2297],[-77.2059,39.2301],[-77.2053,39.2314],[-77.2049,39.2327],[-77.2058,39.234],[-77.2093,39.2332],[-77.2109,39.232],[-77.2133,39.2325],[-77.211,39.2322],[-77.2093,39.2333],[-77.2059,39.2341],[-77.2088,39.2384],[-77.2108,39.2394],[-77.2147,39.2391],[-77.2198,39.2402],[-77.2186,39.2404],[-77.2182,39.2414],[-77.2239,39.2444],[-77.2263,39.2441],[-77.2273,39.2426],[-77.2313,39.2419],[-77.232,39.2401],[-77.2348,39.2404],[-77.2374,39.2343],[-77.2366,39.2303],[-77.235,39.23],[-77.233,39.2286],[-77.2347,39.2296],[-77.2351,39.2282],[-77.2349,39.2298],[-77.2366,39.23],[-77.2368,39.2245],[-77.2383,39.2201],[-77.2387,39.2143],[-77.2396,39.2104],[-77.2341,39.2099],[-77.2312,39.209],[-77.229,39.2154],[-77.2312,39.2087],[-77.2277,39.21],[-77.2253,39.2076],[-77.2218,39.2079],[-77.2192,39.2073],[-77.2156,39.2127],[-77.2142,39.213],[-77.213,39.2151],[-77.2136,39.2161],[-77.2157,39.2156],[-77.216,39.2167],[-77.2151,39.2176],[-77.2179,39.2189],[-77.2151,39.2177],[-77.2141,39.2181],[-77.2098,39.2162],[-77.2104,39.217],[-77.2097,39.2179],[-77.2053,39.2177],[-77.2047,39.2185],[-77.2053,39.2187],[-77.2054,39.2199],[-77.2022,39.2211],[-77.2031,39.2222],[-77.2025,39.2233],[-77.1993,39.2231],[-77.1967,39.2252],[-77.1964,39.227],[-77.1955,39.2274],[-77.1862,39.2292],[-77.1855,39.2306],[-77.1838,39.2314],[-77.1835,39.2325],[-77.1817,39.2334],[-77.1817,39.2346],[-77.1807,39.2357],[-77.179,39.2329],[-77.1775,39.2278],[-77.17,39.2307],[-77.1773,39.2278],[-77.1759,39.2229],[-77.1738,39.223],[-77.1729,39.224],[-77.1731,39.2253],[-77.1746,39.2263],[-77.1727,39.225],[-77.1733,39.2231],[-77.1758,39.2226],[-77.1751,39.2207],[-77.1732,39.2185],[-77.1719,39.213],[-77.1667,39.2137],[-77.1656,39.2106],[-77.1627,39.2109],[-77.1654,39.2103],[-77.1652,39.2093],[-77.1501,39.2115],[-77.1504,39.2137],[-77.1498,39.2147],[-77.144,39.2169],[-77.1427,39.2181],[-77.1349,39.2131],[-77.1258,39.2145],[-77.1348,39.213],[-77.1352,39.2125],[-77.1348,39.2098],[-77.1326,39.2096],[-77.1286,39.2118],[-77.1271,39.2103],[-77.1248,39.2119],[-77.1253,39.2134],[-77.1244,39.2138],[-77.1203,39.2141],[-77.1191,39.2122],[-77.1165,39.2121],[-77.1136,39.2139],[-77.1116,39.2135],[-77.1106,39.2139],[-77.1097,39.2133],[-77.1127,39.212],[-77.1129,39.2113],[-77.1141,39.2114],[-77.1172,39.2079],[-77.1183,39.2079],[-77.1189,39.2052],[-77.1228,39.2046],[-77.1225,39.2014],[-77.1247,39.1941],[-77.1177,39.1866],[-77.1039,39.18],[-77.1005,39.1771],[-77.0997,39.1789],[-77.1004,39.1814],[-77.1015,39.1813],[-77.1016,39.1822],[-77.1011,39.1824],[-77.1016,39.1838],[-77.1031,39.1834],[-77.1036,39.1846],[-77.1031,39.1877],[-77.102,39.1875],[-77.1018,39.191],[-77.1034,39.1913],[-77.1029,39.1925],[-77.1014,39.1922],[-77.0991,39.1993],[-77.1031,39.2028],[-77.1053,39.2014],[-77.1073,39.2019],[-77.1034,39.2043],[-77.1047,39.2068],[-77.1066,39.2075],[-77.1044,39.207],[-77.1019,39.2074],[-77.1001,39.2095],[-77.0982,39.2136],[-77.0983,39.2124],[-77.0958,39.2123],[-77.0985,39.2122],[-77.1016,39.2074],[-77.1042,39.2068],[-77.1025,39.204],[-77.0974,39.2027],[-77.0987,39.2001],[-77.0964,39.2],[-77.0953,39.1963],[-77.0939,39.1947],[-77.0953,39.1945],[-77.0957,39.1935],[-77.0984,39.1931],[-77.0988,39.1914],[-77.1,39.1916],[-77.1003,39.1909],[-77.1015,39.191],[-77.1007,39.1849],[-77.0978,39.1851],[-77.0977,39.184],[-77.0984,39.1839],[-77.098,39.1803],[-77.1001,39.1804],[-77.0996,39.1788],[-77.1002,39.1768],[-77.0961,39.1723],[-77.0924,39.1702],[-77.0882,39.1691],[-77.0863,39.1703],[-77.087,39.171],[-77.0855,39.1721],[-77.0876,39.1748],[-77.0775,39.1809],[-77.0866,39.1838],[-77.094,39.185],[-77.087,39.1841],[-77.0768,39.1809],[-77.0709,39.1807],[-77.0679,39.1823],[-77.0647,39.1823],[-77.0631,39.1812],[-77.0616,39.181],[-77.0667,39.1926],[-77.0671,39.1967],[-77.066,39.1993],[-77.0668,39.1997],[-77.066,39.1994],[-77.0656,39.2]],[[-77.0732,39.2023],[-77.0716,39.2062],[-77.0731,39.2024],[-77.0687,39.2013],[-77.0681,39.2018],[-77.0689,39.2003],[-77.0683,39.1995],[-77.069,39.1999],[-77.069,39.2012],[-77.0732,39.2023]],[[-77.0838,39.2071],[-77.0837,39.2044],[-77.0812,39.2046],[-77.086,39.2042],[-77.089,39.2055],[-77.0888,39.2069],[-77.0882,39.2052],[-77.0862,39.2043],[-77.0841,39.2043],[-77.0838,39.2071]],[[-77.0946,39.2057],[-77.0952,39.2049],[-77.0953,39.205],[-77.0946,39.2057]],[[-77.0918,39.2125],[-77.0921,39.2104],[-77.0923,39.2117],[-77.0918,39.2125]],[[-77.1208,39.2259],[-77.1193,39.2247],[-77.1183,39.2219],[-77.1157,39.222],[-77.1174,39.2215],[-77.1186,39.2219],[-77.1195,39.2246],[-77.1214,39.2265],[-77.122,39.2293],[-77.1256,39.2282],[-77.1251,39.2272],[-77.124,39.2273],[-77.1249,39.2269],[-77.1244,39.2257],[-77.1235,39.2261],[-77.1242,39.2254],[-77.1238,39.2246],[-77.1228,39.2246],[-77.1237,39.2243],[-77.1233,39.2231],[-77.1259,39.2282],[-77.1195,39.2302],[-77.1199,39.2301],[-77.1171,39.2264],[-77.1182,39.2275],[-77.1192,39.2273],[-77.1184,39.2278],[-77.1201,39.2299],[-77.1217,39.2293],[-77.1208,39.2259]],[[-77.1272,39.2229],[-77.1328,39.2227],[-77.1344,39.2241],[-77.1347,39.2253],[-77.1362,39.2253],[-77.1312,39.2255],[-77.1288,39.2266],[-77.1309,39.2254],[-77.1343,39.2253],[-77.1344,39.2245],[-77.1326,39.2228],[-77.1272,39.2229]],[[-77.1068,39.2308],[-77.1061,39.2308],[-77.1075,39.2302],[-77.1087,39.2285],[-77.1113,39.2293],[-77.1159,39.2291],[-77.1137,39.2257],[-77.1124,39.2254],[-77.1114,39.226],[-77.1128,39.2252],[-77.113,39.2242],[-77.113,39.2252],[-77.1143,39.2259],[-77.1161,39.229],[-77.1181,39.2292],[-77.1193,39.2302],[-77.1176,39.2293],[-77.1113,39.2295],[-77.1092,39.2288],[-77.1068,39.2308]]],[[[-77.0986,39.2345],[-77.0965,39.2335],[-77.0997,39.2351],[-77.0986,39.2345]],[[-77.1524,39.2339],[-77.1493,39.2337],[-77.1524,39.2336],[-77.1524,39.2339]],[[-77.1675,39.2344],[-77.1666,39.2362],[-77.1663,39.2357],[-77.1642,39.2359],[-77.1644,39.2365],[-77.1639,39.2358],[-77.1605,39.2363],[-77.1654,39.2357],[-77.1675,39.2344]],[[-77.0801,39.2444],[-77.0821,39.2451],[-77.0823,39.2459],[-77.0818,39.2452],[-77.0784,39.2437],[-77.0733,39.243],[-77.0722,39.2405],[-77.0705,39.2391],[-77.0718,39.2371],[-77.072,39.2351],[-77.0719,39.2371],[-77.0706,39.239],[-77.0724,39.2406],[-77.0735,39.243],[-77.0778,39.2433],[-77.0801,39.2444]],[[-77.1091,39.2403],[-77.1115,39.2413],[-77.1147,39.244],[-77.1115,39.2414],[-77.1091,39.2403]],[[-77.0624,39.2288],[-77.0627,39.2289],[-77.0612,39.229],[-77.0624,39.2288]],[[-77.1287,39.2489],[-77.1274,39.2487],[-77.1274,39.2486],[-77.1287,39.2489]],[[-77.1298,39.249],[-77.135,39.251],[-77.1288,39.2489],[-77.1298,39.249]],[[-77.1355,39.2551],[-77.1349,39.2554],[-77.1375,39.254],[-77.1355,39.2551]],[[-77.133,39.2564],[-77.132,39.2564],[-77.1329,39.2563],[-77.133,39.2564]],[[-77.1295,39.2572],[-77.1268,39.2573],[-77.1296,39.257],[-77.1295,39.2572]],[[-77.1245,39.2574],[-77.1244,39.2574],[-77.1245,39.2573],[-77.1245,39.2574]],[[-77.1232,39.258],[-77.1224,39.2583],[-77.1231,39.2579],[-77.1232,39.258]],[[-77.1221,39.2588],[-77.122,39.2591],[-77.1218,39.2591],[-77.1221,39.2588]],[[-77.1642,39.2881],[-77.1633,39.2895],[-77.1611,39.2898],[-77.1619,39.2869],[-77.1613,39.2853],[-77.1623,39.2866],[-77.1613,39.2895],[-77.1629,39.2894],[-77.1642,39.2881]],[[-77.1605,39.2768],[-77.1572,39.2752],[-77.1583,39.2755],[-77.1605,39.2768]],[[-77.207,39.2258],[-77.2115,39.2231],[-77.2136,39.2204],[-77.2116,39.2232],[-77.207,39.2258]],[[-77.2264,39.2259],[-77.2304,39.2292],[-77.2314,39.2322],[-77.2298,39.2349],[-77.2323,39.239],[-77.231,39.2367],[-77.2268,39.2387],[-77.2238,39.2388],[-77.2249,39.2386],[-77.2247,39.2368],[-77.2253,39.2387],[-77.227,39.2385],[-77.2309,39.2364],[-77.2297,39.2348],[-77.231,39.2322],[-77.2303,39.2295],[-77.2264,39.2259]],[[-77.2246,39.2175],[-77.2229,39.219],[-77.2197,39.2189],[-77.2228,39.2188],[-77.2246,39.2175]],[[-77.109,39.2082],[-77.1088,39.2086],[-77.1092,39.2068],[-77.1126,39.2062],[-77.1097,39.2069],[-77.109,39.2082]],[[-77.1077,39.2077],[-77.1077,39.2079],[-77.1066,39.2075],[-77.1077,39.2077]],[[-77.1154,39.205],[-77.1129,39.206],[-77.1153,39.2048],[-77.1185,39.2047],[-77.1191,39.2031],[-77.1189,39.2048],[-77.1154,39.205]]]]},"properties":{"OBJECTID":43126,"PERIMETER":null,"ACRES":22768.670000000002,"SHAPE.AREA":991979077.928981,"SHAPE.LEN":658446.3252969851,"ZONE_":"AR","CODE":"AR","ZONE1":null,"ZONING_ID":50,"BEGINDATE":1414627200000,"BEGINREASON":"G-956","BEGINPLANNER":null,"ENDDATE":null,"ENDREASON":null,"ENDPLANNER":null,"LONGZONE":"AR","RESIDENTIAL_FLAG":"Residential"}},{"type":"Feature","id":43753,"geometry":{"type":"Polygon","coordinates":[[[-77.256,39.2447],[-77.2536,39.2452],[-77.255,39.2472],[-77.2578,39.2456],[-77.256,39.2447]]]},"properties":{"OBJECTID":43753,"PERIMETER":null,"ACRES":13.98,"SHAPE.AREA":608993.9539429221,"SHAPE.LEN":3245.96916890806,"ZONE_":"AR","CODE":"AR","ZONE1":null,"ZONING_ID":50,"BEGINDATE":1414627200000,"BEGINREASON":"G-956","BEGINPLANNER":null,"ENDDATE":null,"ENDREASON":null,"ENDPLANNER":null,"LONGZONE":"AR","RESIDENTIAL_FLAG":"Residential"}},{"type":"Feature","id":41459,"geometry":{"type":"Polygon","coordinates":[[[-77.3316,39.1999],[-77.3318,39.2001],[-77.3325,39.1993],[-77.3316,39.1999]]]},"properties":{"OBJECTID":41459,"PERIMETER":null,"ACRES":0.25,"SHAPE.AREA":14383.4092697524,"SHAPE.LEN":804.65729681153,"ZONE_":"AR","CODE":"AR","ZONE1":null,"ZONING_ID":50,"BEGINDATE":1414627200000,"BEGINREASON":"G-956","BEGINPLANNER":null,"ENDDATE":null,"ENDREASON":null,"ENDPLANNER":null,"LONGZONE":"AR","RESIDENTIAL_FLAG":"Residential"}}]}