{"type":"FeatureCollection","features":[{"type":"Feature","geometry":{"type":"LineString","coordinates":[[-77.1174,39.2658],[-77.1159,39.264],[-77.114,39.2637],[-77.1117,39.2649],[-77.1043,39.2637],[-77.102,39.2648],[-77.1001,39.2645],[-77.0987,39.2627],[-77.0911,39.2615],[-77.0897,39.2597],[-77.0874,39.2609],[-77.0859,39.2591],[-77.0822,39.2585],[-77.0826,39.257],[-77.0811,39.2553],[-77.0792,39.255],[-77.077,39.2561],[-77.0755,39.2543],[-77.0736,39.254],[-77.0721,39.2523],[-77.0703,39.252],[-77.0688,39.2502],[-77.0692,39.2488],[-77.0618,39.2399],[-77.0599,39.2396],[-77.0577,39.2408],[-77.0562,39.239],[-77.0539,39.2402],[-77.0483,39.2392]]},"properties":{"PNAME":"PATUXENT R"}},{"type":"Feature","geometry":{"type":"LineString","coordinates":[[-77.366,39.2941],[-77.3679,39.2944],[-77.3694,39.2962],[-77.3732,39.2968],[-77.3746,39.2985],[-77.3821,39.2998],[-77.3851,39.3033],[-77.3874,39.3021],[-77.3889,39.3038],[-77.3907,39.3042],[-77.3922,39.3059],[-77.3918,39.3074],[-77.3937,39.3077],[-77.396,39.3065],[-77.3997,39.3071],[-77.402,39.306],[-77.4024,39.3045],[-77.4009,39.3028],[-77.4032,39.3016],[-77.4036,39.3001],[-77.4058,39.299],[-77.4077,39.2993],[-77.4081,39.2978],[-77.4103,39.2967],[-77.4118,39.2984],[-77.4114,39.2999],[-77.4129,39.3017],[-77.4152,39.3005],[-77.4171,39.3008],[-77.4186,39.3026],[-77.4204,39.3029],[-77.4249,39.3006],[-77.4268,39.3009],[-77.4381,39.2951],[-77.44,39.2954]]},"properties":{"PNAME":"BENNETT CR"}},{"type":"Feature","geometry":{"type":"LineString","coordinates":[[-76.9857,39.1102],[-76.9842,39.1085],[-76.9846,39.107],[-76.9827,39.1067],[-76.9798,39.1032],[-76.9779,39.1028],[-76.9757,39.104],[-76.9742,39.1022],[-76.9723,39.1019],[-76.965,39.0931],[-76.9662,39.0887],[-76.9647,39.087],[-76.9715,39.0835],[-76.9723,39.0806],[-76.976,39.0813],[-76.9783,39.0801],[-76.9795,39.0757],[-76.978,39.0739],[-76.9792,39.0696],[-76.9777,39.0678],[-76.9781,39.0664],[-76.9827,39.0641],[-76.9831,39.0626],[-76.9834,39.0611],[-76.982,39.0594],[-76.9824,39.058],[-76.9794,39.0544],[-76.9806,39.05],[-76.9777,39.0465],[-76.9781,39.0451],[-76.9766,39.0433],[-76.977,39.0418],[-76.9733,39.0412],[-76.9703,39.0377],[-76.9711,39.0347],[-76.9693,39.0345],[-76.9648,39.0292],[-76.9626,39.0303],[-76.957,39.0294],[-76.9555,39.0276],[-76.9559,39.0262],[-76.9544,39.0244],[-76.9549,39.023],[-76.953,39.0226],[-76.95,39.0191],[-76.9482,39.0188],[-76.9467,39.0171],[-76.9471,39.0156],[-76.9456,39.0138],[-76.946,39.0123],[-76.9446,39.0106],[-76.9427,39.0103],[-76.9397,39.0067],[-76.9383,39.005],[-76.9387,39.0035],[-76.9358,39.0],[-76.938,38.9988],[-76.9392,38.9945],[-76.9377,38.9927],[-76.9389,38.9884],[-76.9352,38.9877],[-76.9356,38.9863],[-76.9337,38.986],[-76.9323,38.9842],[-76.9267,38.9833],[-76.9222,38.9779],[-76.9245,38.9768],[-76.9249,38.9754],[-76.9253,38.9739],[-76.9235,38.9736],[-76.922,38.9718],[-76.9228,38.9689],[-76.925,38.9678],[-76.9254,38.9663],[-76.924,38.9646],[-76.9262,38.9634],[-76.9278,38.9576],[-76.9323,38.9553],[-76.9339,38.9494],[-76.9385,38.9472],[-76.9392,38.9443],[-76.9411,38.9446],[-76.9479,38.9412]]},"properties":{"PNAME":"*A"}},{"type":"Feature","geometry":{"type":"LineString","coordinates":[[-77.3816,39.3892],[-77.382,39.3879],[-77.3911,39.3832],[-77.393,39.3836],[-77.3938,39.3807],[-77.3923,39.3789],[-77.3927,39.3774],[-77.3908,39.3771],[-77.3893,39.3754],[-77.3901,39.3725],[-77.3924,39.3713],[-77.3942,39.3716],[-77.3965,39.3705],[-77.3984,39.3707],[-77.4006,39.3696],[-77.401,39.3682],[-77.4033,39.367],[-77.407,39.3676],[-77.4074,39.3662],[-77.412,39.3638],[-77.4124,39.3624],[-77.4146,39.3612],[-77.415,39.3598],[-77.4135,39.358],[-77.4139,39.3565],[-77.4124,39.3548],[-77.4128,39.3533],[-77.4113,39.3516],[-77.4136,39.3504],[-77.414,39.349],[-77.4163,39.3478],[-77.4166,39.3463],[-77.4212,39.344],[-77.4235,39.3353],[-77.422,39.3335],[-77.4202,39.3332],[-77.4187,39.3314],[-77.4149,39.3308],[-77.4134,39.3291],[-77.4142,39.3262],[-77.4127,39.3244],[-77.4139,39.3201],[-77.4124,39.3183],[-77.4128,39.3168],[-77.4173,39.3145],[-77.4192,39.3148],[-77.4215,39.3137],[-77.4271,39.3146],[-77.4293,39.3134],[-77.4297,39.312],[-77.4343,39.3096],[-77.437,39.2994],[-77.4392,39.2983],[-77.44,39.2954]]},"properties":{"PNAME":"MONOCACY R"}},{"type":"Feature","geometry":{"type":"LineString","coordinates":[[-77.1678,39.1083],[-77.1701,39.1071],[-77.1713,39.1027],[-77.1698,39.101],[-77.1702,39.0996],[-77.1687,39.0978],[-77.1695,39.0948],[-77.1717,39.0937],[-77.1721,39.0922],[-77.1706,39.0905],[-77.1752,39.0882],[-77.1764,39.0838],[-77.1809,39.0815],[-77.1794,39.0797],[-77.1798,39.0783],[-77.1817,39.0786],[-77.1824,39.0757],[-77.1892,39.0722],[-77.19,39.0693],[-77.1945,39.067],[-77.1949,39.0656],[-77.1972,39.0644],[-77.198,39.0615],[-77.1965,39.0597],[-77.2055,39.0551],[-77.2093,39.0557],[-77.2115,39.0546],[-77.2138,39.0534],[-77.2142,39.052],[-77.2164,39.0508],[-77.2168,39.0494],[-77.2154,39.0476],[-77.2176,39.0465],[-77.2195,39.0468],[-77.2217,39.0456],[-77.2236,39.0459],[-77.2259,39.0448],[-77.2277,39.0451],[-77.23,39.0439],[-77.2304,39.0425],[-77.2372,39.039],[-77.2428,39.0399],[-77.2457,39.0434],[-77.2476,39.0437],[-77.2499,39.0426],[-77.2573,39.0438],[-77.2618,39.0415],[-77.2637,39.0418],[-77.266,39.0407]]},"properties":{"PNAME":"WATTS BR"}},{"type":"Feature","geometry":{"type":"LineString","coordinates":[[-77.4416,39.0767],[-77.421,39.0734],[-77.4195,39.0717],[-77.4102,39.0702],[-77.4079,39.0713],[-77.3948,39.0692],[-77.3926,39.0704],[-77.3795,39.0682],[-77.3772,39.0694],[-77.3642,39.0672]]},"properties":{"PNAME":"POTOMAC R"}},{"type":"Feature","geometry":{"type":"LineString","coordinates":[[-77.5494,39.2811],[-77.5435,39.274],[-77.5379,39.2731],[-77.5364,39.2713],[-77.5289,39.2701],[-77.5274,39.2684],[-77.5236,39.2678],[-77.5221,39.266],[-77.5225,39.2646],[-77.521,39.2628],[-77.5192,39.2625],[-77.5177,39.2607],[-77.5154,39.2619],[-77.5135,39.2616],[-77.512,39.2599],[-77.5064,39.2589],[-77.5049,39.2572],[-77.4881,39.2544],[-77.4851,39.251],[-77.4813,39.2504],[-77.4784,39.2468],[-77.4787,39.2454],[-77.4773,39.2436],[-77.4735,39.243],[-77.469,39.2377],[-77.4672,39.2374],[-77.4657,39.2357],[-77.4638,39.2354],[-77.4549,39.2248],[-77.4553,39.2234]]},"properties":{"PNAME":"POTOMAC R"}},{"type":"Feature","geometry":{"type":"LineString","coordinates":[[-77.3654,39.0624],[-77.3642,39.0672]]},"properties":{"PNAME":"*A"}},{"type":"Feature","geometry":{"type":"LineString","coordinates":[[-77.0249,39.3252],[-77.023,39.3248],[-77.0186,39.3195],[-77.0167,39.3192],[-77.0137,39.3157],[-77.0142,39.3142],[-77.0127,39.3125],[-77.0108,39.3122],[-77.0093,39.3104],[-77.0097,39.3089],[-77.0082,39.3072],[-77.0064,39.3069],[-77.0049,39.3051],[-77.003,39.3048],[-77.0015,39.303],[-77.0019,39.3016],[-76.9963,39.3007],[-76.9948,39.2989],[-76.993,39.2986],[-76.9907,39.2997],[-76.9832,39.2985],[-76.9809,39.2996],[-76.978,39.2961],[-76.9784,39.2946],[-76.9754,39.2911],[-76.9736,39.2908],[-76.9706,39.2873],[-76.9687,39.287],[-76.9665,39.2881],[-76.9533,39.286],[-76.9504,39.2824],[-76.9481,39.2836],[-76.9466,39.2818],[-76.9429,39.2812],[-76.9406,39.2823],[-76.9369,39.2817],[-76.9373,39.2803],[-76.9358,39.2785],[-76.9366,39.2756],[-76.9351,39.2738],[-76.9329,39.2749],[-76.9314,39.2732],[-76.9326,39.2688],[-76.9311,39.267],[-76.9334,39.2659],[-76.9342,39.263],[-76.9312,39.2595],[-76.932,39.2565],[-76.9305,39.2548],[-76.9283,39.2559],[-76.9245,39.2553],[-76.92,39.2576],[-76.9162,39.257],[-76.9148,39.2552],[-76.9156,39.2523],[-76.9141,39.2506],[-76.9122,39.2503],[-76.9134,39.2458],[-76.9119,39.2441],[-76.9142,39.2429],[-76.9158,39.2371],[-76.9204,39.2348],[-76.9208,39.2334],[-76.9193,39.2316],[-76.9201,39.2287],[-76.9171,39.2252],[-76.9153,39.2249],[-76.9165,39.2205],[-76.915,39.2187],[-76.9094,39.2178],[-76.911,39.212],[-76.9095,39.2102],[-76.9099,39.2087],[-76.9084,39.207],[-76.9092,39.2041],[-76.9019,39.1953],[-76.9,39.1949],[-76.9012,39.1905],[-76.8982,39.187],[-76.896,39.1882],[-76.8945,39.1864],[-76.8953,39.1835],[-76.8976,39.1824],[-76.8961,39.1806],[-76.8965,39.1792],[-76.8988,39.178],[-76.8914,39.1691],[-76.8896,39.1688],[-76.8881,39.1671],[-76.8825,39.1661],[-76.8781,39.1609],[-76.8725,39.1599],[-76.8679,39.1622],[-76.8664,39.1604],[-76.8646,39.1601],[-76.8608,39.1595],[-76.8586,39.1607],[-76.8542,39.1554],[-76.8523,39.155],[-76.8508,39.1533],[-76.8512,39.1518],[-76.8483,39.1483],[-76.8445,39.1477],[-76.8454,39.1447],[-76.8439,39.143],[-76.8416,39.1441],[-76.8379,39.1435]]},"properties":{"PNAME":"MIDDLE PATUXENT R"}},{"type":"Feature","geometry":{"type":"LineString","coordinates":[[-77.3443,39.0686],[-77.3406,39.068],[-77.3383,39.0692],[-77.3271,39.0674],[-77.3256,39.0656],[-77.3234,39.0667],[-77.3189,39.0614],[-77.3152,39.0608],[-77.3137,39.0591],[-77.2969,39.0564]]},"properties":{"PNAME":"POTOMAC R"}},{"type":"Feature","geometry":{"type":"LineString","coordinates":[[-77.4754,39.1035],[-77.465,39.0912],[-77.4632,39.0909],[-77.4572,39.0838],[-77.4554,39.0836],[-77.4524,39.08],[-77.4468,39.0792],[-77.4453,39.0773],[-77.4416,39.0767]]},"properties":{"PNAME":"POTOMAC R"}},{"type":"Feature","geometry":{"type":"LineString","coordinates":[[-77.5673,39.3097],[-77.5635,39.3091],[-77.559,39.3038],[-77.5602,39.2994],[-77.5587,39.2977],[-77.5599,39.2933],[-77.5494,39.2811]]},"properties":{"PNAME":"POTOMAC R"}},{"type":"Feature","geometry":{"type":"LineString","coordinates":[[-77.0483,39.2392],[-77.0464,39.2389],[-77.0331,39.223],[-77.0313,39.2227],[-77.0298,39.221],[-77.0279,39.2207],[-77.025,39.2171],[-77.0194,39.2162],[-77.0179,39.2144],[-77.0141,39.2138],[-77.0097,39.2085],[-77.0117,39.2013],[-77.014,39.2001],[-77.0144,39.1986],[-77.0085,39.1916],[-77.0104,39.1843],[-77.0075,39.1808],[-77.0056,39.1805],[-77.0042,39.1787],[-77.0046,39.1772],[-77.0016,39.1737],[-77.002,39.1723],[-77.0043,39.1711],[-77.0013,39.1675],[-76.992,39.166],[-76.9897,39.1672],[-76.9882,39.1655],[-76.9845,39.1648],[-76.983,39.163],[-76.9807,39.1642],[-76.9789,39.1639],[-76.9774,39.1621],[-76.9798,39.1534],[-76.9783,39.1516],[-76.9727,39.1507],[-76.9712,39.1489],[-76.9656,39.148],[-76.9642,39.1462],[-76.9623,39.1459],[-76.9578,39.1482],[-76.9559,39.1479],[-76.9544,39.1461],[-76.9568,39.1374],[-76.9538,39.1339],[-76.9501,39.1332],[-76.9433,39.1367],[-76.9414,39.1364],[-76.9392,39.1375],[-76.9388,39.139],[-76.9365,39.1401],[-76.9346,39.1398],[-76.9324,39.141],[-76.9286,39.1403],[-76.929,39.1389],[-76.9276,39.1371],[-76.9253,39.1383],[-76.9238,39.1365],[-76.922,39.1362],[-76.9205,39.1344],[-76.9186,39.1341],[-76.9171,39.1324],[-76.9175,39.1309],[-76.9161,39.1291],[-76.9123,39.1285],[-76.9109,39.1267],[-76.9086,39.1279],[-76.9049,39.1273],[-76.9003,39.1296],[-76.8999,39.131],[-76.8868,39.1288],[-76.8854,39.1271],[-76.8816,39.1264],[-76.8743,39.1176],[-76.8724,39.1173],[-76.8732,39.1144],[-76.8718,39.1126],[-76.8699,39.1123],[-76.8684,39.1105],[-76.8666,39.1102],[-76.867,39.1087],[-76.8613,39.1079],[-76.8591,39.109],[-76.8572,39.1087],[-76.8557,39.1069],[-76.852,39.1063],[-76.8505,39.1045],[-76.8449,39.1036],[-76.842,39.1001],[-76.8401,39.0998],[-76.8409,39.0968],[-76.8395,39.0951],[-76.8372,39.0962],[-76.8357,39.0944],[-76.8339,39.0941],[-76.8309,39.0906],[-76.8291,39.0903],[-76.8299,39.0874],[-76.8321,39.0862],[-76.8306,39.0845],[-76.8375,39.0811],[-76.8379,39.0796],[-76.8364,39.0778],[-76.8345,39.0775],[-76.8353,39.0746],[-76.8376,39.0734],[-76.8384,39.0705],[-76.8355,39.067],[-76.8336,39.0667],[-76.8321,39.0649],[-76.8284,39.0643],[-76.8269,39.0625],[-76.8247,39.0637],[-76.8232,39.0619],[-76.8176,39.061],[-76.8153,39.0621],[-76.8139,39.0603],[-76.8101,39.0597],[-76.8079,39.0609],[-76.806,39.0605],[-76.8045,39.0588],[-76.8053,39.0559],[-76.8035,39.0556],[-76.802,39.0538],[-76.8024,39.0523],[-76.8005,39.052],[-76.7947,39.045],[-76.7924,39.0461],[-76.7868,39.0452],[-76.7845,39.0463],[-76.7827,39.046],[-76.7812,39.0442],[-76.7775,39.0436],[-76.776,39.0418],[-76.7741,39.0415],[-76.7727,39.0398],[-76.7708,39.0395],[-76.7685,39.0406],[-76.7648,39.04],[-76.7656,39.037],[-76.7627,39.0335],[-76.7604,39.0347],[-76.7589,39.0329],[-76.7533,39.0319],[-76.7537,39.0305],[-76.7523,39.0287],[-76.7527,39.0273],[-76.7468,39.0202],[-76.745,39.0199],[-76.7435,39.0182],[-76.7443,39.0152],[-76.7428,39.0134],[-76.7436,39.0105],[-76.7422,39.0088],[-76.7403,39.0084],[-76.7389,39.0067],[-76.737,39.0064],[-76.734,39.0028],[-76.7318,39.004],[-76.7299,39.0036],[-76.7285,39.0019],[-76.7289,39.0004],[-76.7274,38.9987],[-76.7218,38.9977],[-76.7203,38.9959],[-76.7185,38.9957],[-76.717,38.9939],[-76.7133,38.9933]]},"properties":{"PNAME":"PATUXENT R"}},{"type":"Feature","geometry":{"type":"LineString","coordinates":[[-76.9479,38.9412],[-76.9464,38.9394],[-76.9472,38.9364],[-76.9488,38.9306],[-76.9511,38.9295],[-76.9481,38.9259],[-76.9463,38.9256],[-76.9448,38.9239],[-76.9455,38.9215]]},"properties":{"PNAME":"ANACOSTI R"}},{"type":"Feature","geometry":{"type":"LineString","coordinates":[[-77.2492,39.0015],[-77.2515,39.0003],[-77.2519,38.9988],[-77.2504,38.9971],[-77.2508,38.9956],[-77.2493,38.9938],[-77.2474,38.9935],[-77.243,38.9883],[-77.2438,38.9853],[-77.2423,38.9836],[-77.2404,38.9833],[-77.239,38.9815],[-77.2352,38.9809]]},"properties":{"PNAME":"POTOMAC R"}},{"type":"Feature","geometry":{"type":"LineString","coordinates":[[-77.1419,39.1968],[-77.1431,39.1924],[-77.1454,39.1913],[-77.1424,39.1878],[-77.1428,39.1863],[-77.1384,39.181],[-77.1388,39.1796],[-77.1329,39.1725],[-77.1337,39.1696],[-77.1307,39.1661],[-77.1331,39.1573],[-77.1316,39.1556],[-77.132,39.1541],[-77.1261,39.147],[-77.1283,39.1459],[-77.1302,39.1462],[-77.1306,39.1447],[-77.1291,39.143],[-77.1299,39.14],[-77.1307,39.1371],[-77.133,39.136],[-77.1315,39.1342],[-77.1319,39.1328],[-77.1364,39.1305],[-77.1372,39.1276],[-77.1376,39.1261],[-77.1361,39.1243],[-77.1365,39.1229],[-77.1346,39.1226],[-77.1332,39.1208],[-77.1348,39.115],[-77.1303,39.1097],[-77.1307,39.1083],[-77.1278,39.1047],[-77.1285,39.1018],[-77.1211,39.1006],[-77.1181,39.0971],[-77.1204,39.0959],[-77.1208,39.0945],[-77.1119,39.0839],[-77.1101,39.0836],[-77.1086,39.0818],[-77.1094,39.0789],[-77.1064,39.0754],[-77.1076,39.071],[-77.1061,39.0692],[-77.1073,39.0649],[-77.0998,39.0637],[-77.0984,39.0619],[-77.0965,39.0616],[-77.095,39.0598],[-77.0954,39.0583],[-77.0925,39.0548],[-77.0929,39.0534],[-77.0914,39.0516],[-77.0918,39.0502],[-77.0903,39.0484],[-77.0911,39.0455],[-77.0896,39.0437],[-77.09,39.0422],[-77.0886,39.0405],[-77.0897,39.0361],[-77.0853,39.0309],[-77.0857,39.0294],[-77.088,39.0282],[-77.0865,39.0264],[-77.0888,39.0253],[-77.0906,39.0256],[-77.0929,39.0245],[-77.0948,39.0247],[-77.097,39.0236],[-77.0974,39.0222],[-77.0997,39.021],[-77.1005,39.0181],[-77.099,39.0163],[-77.0971,39.016],[-77.0956,39.0143],[-77.0938,39.014],[-77.0923,39.0122],[-77.0886,39.0116],[-77.0856,39.0081],[-77.0838,39.0078],[-77.0815,39.0089],[-77.0684,39.0067],[-77.0662,39.0079],[-77.0643,39.0076],[-77.0621,39.0087],[-77.0591,39.0052],[-77.0599,39.0023],[-77.0667,38.9989],[-77.0687,38.9916],[-77.0657,38.9881],[-77.0601,38.9871],[-77.0579,38.9883],[-77.056,38.988],[-77.0545,38.9862],[-77.0522,38.9872]]},"properties":{"PNAME":"ROCK CR"}},{"type":"Feature","geometry":{"type":"LineString","coordinates":[[-77.0215,39.1222],[-77.0237,39.1211],[-77.0241,39.1196],[-77.0264,39.1185],[-77.0288,39.1097],[-77.0273,39.108],[-77.0296,39.1068],[-77.03,39.1054],[-77.0337,39.106],[-77.0352,39.1078],[-77.0375,39.1066],[-77.0378,39.1052],[-77.0401,39.104],[-77.0386,39.1022],[-77.0398,39.0979],[-77.0384,39.0961],[-77.0365,39.0958],[-77.035,39.094],[-77.0313,39.0934],[-77.029,39.0946],[-77.0275,39.0928],[-77.0283,39.0899],[-77.0268,39.0881],[-77.025,39.0878],[-77.0266,39.082],[-77.0251,39.0802],[-77.0263,39.0759],[-77.0248,39.0741],[-77.0271,39.0729],[-77.0275,39.0715],[-77.0297,39.0703],[-77.0305,39.0675],[-77.0276,39.0639],[-77.0257,39.0636],[-77.0242,39.0618],[-77.0205,39.0612],[-77.0182,39.0624],[-77.0145,39.0618],[-77.0149,39.0603],[-77.0134,39.0585],[-77.0142,39.0556],[-77.0113,39.0521],[-77.0125,39.0477],[-77.011,39.046],[-77.0126,39.0401],[-77.0111,39.0384],[-77.0123,39.034],[-77.0108,39.0322],[-77.009,39.0319],[-77.0016,39.0231],[-76.9997,39.0228],[-77.0001,39.0213],[-76.9972,39.0178],[-76.9976,39.0163],[-76.9961,39.0146],[-76.9943,39.0143],[-76.9954,39.0099],[-76.994,39.0081],[-76.9921,39.0078],[-76.9925,39.0064],[-76.9896,39.0028],[-76.9858,39.0022],[-76.9844,39.0004],[-76.9825,39.0001],[-76.9829,38.9987],[-76.98,38.9952],[-76.9781,38.9948],[-76.9752,38.9913],[-76.9733,38.991],[-76.9718,38.9892],[-76.97,38.9889],[-76.9685,38.9872],[-76.9689,38.9857],[-76.9659,38.9822],[-76.9663,38.9807],[-76.9686,38.9796],[-76.9694,38.9767],[-76.9679,38.9749],[-76.9691,38.9705],[-76.9759,38.9671],[-76.9744,38.9653],[-76.9752,38.9624],[-76.9775,38.9613],[-76.9787,38.9569],[-76.9743,38.9516],[-76.9724,38.9513],[-76.9701,38.9524],[-76.9683,38.9521],[-76.9639,38.9468],[-76.9527,38.945],[-76.9512,38.9432],[-76.9493,38.9429],[-76.9479,38.9412]]},"properties":{"PNAME":"ANACOSTI R"}},{"type":"Feature","geometry":{"type":"LineString","coordinates":[[-77.2543,39.244],[-77.2513,39.2405],[-77.2517,39.239],[-77.2502,39.2373],[-77.251,39.2344],[-77.2556,39.2321],[-77.2559,39.2307],[-77.2582,39.2295],[-77.259,39.2266],[-77.2613,39.2254],[-77.2598,39.2236],[-77.2621,39.2225],[-77.2624,39.221],[-77.2647,39.2199],[-77.2666,39.2202],[-77.2688,39.219],[-77.2692,39.2176],[-77.2715,39.2164],[-77.2719,39.215],[-77.2742,39.2138],[-77.2727,39.212],[-77.2738,39.2077],[-77.2829,39.2031],[-77.2837,39.2002],[-77.2905,39.1967],[-77.2909,39.1953],[-77.2894,39.1935],[-77.2913,39.1862],[-77.2951,39.1868],[-77.2966,39.1886],[-77.2984,39.1889],[-77.2999,39.1907],[-77.3018,39.1909],[-77.3041,39.1898],[-77.3063,39.1886],[-77.3033,39.1851],[-77.3011,39.1863],[-77.2981,39.1828],[-77.2985,39.1813],[-77.3008,39.1801],[-77.3019,39.1758],[-77.3038,39.176],[-77.3061,39.1749],[-77.3065,39.1735],[-77.311,39.1711],[-77.3118,39.1682],[-77.3163,39.1659],[-77.3167,39.1645],[-77.3223,39.1654],[-77.3238,39.1671],[-77.3261,39.166],[-77.3298,39.1666],[-77.3343,39.1643],[-77.3347,39.1628],[-77.337,39.1617],[-77.3377,39.1588],[-77.3363,39.157],[-77.3386,39.1483],[-77.3409,39.1471],[-77.3416,39.1442],[-77.3439,39.143],[-77.3424,39.1413],[-77.3406,39.141],[-77.3409,39.1395],[-77.338,39.136],[-77.3384,39.1346]]},"properties":{"PNAME":"LITTLE SENECA CR"}},{"type":"Feature","geometry":{"type":"LineString","coordinates":[[-77.4795,39.1041],[-77.4754,39.1035]]},"properties":{"PNAME":"GOOSE CR"}},{"type":"Feature","geometry":{"type":"LineString","coordinates":[[-77.2969,39.0564],[-77.295,39.056],[-77.2935,39.0542],[-77.286,39.0531],[-77.2846,39.0513],[-77.2827,39.051],[-77.2812,39.0492],[-77.2816,39.0478],[-77.2786,39.0443],[-77.2674,39.0425],[-77.266,39.0407]]},"properties":{"PNAME":"POTOMAC R"}},{"type":"Feature","geometry":{"type":"LineString","coordinates":[[-77.266,39.0407],[-77.2585,39.0395],[-77.257,39.0377],[-77.2552,39.0374],[-77.2537,39.0356],[-77.2499,39.035],[-77.2455,39.0297],[-77.2436,39.0295],[-77.2377,39.0224],[-77.2385,39.0195],[-77.2408,39.0183],[-77.2416,39.0154],[-77.2438,39.0142],[-77.2454,39.0084],[-77.2476,39.0072],[-77.248,39.0058],[-77.2503,39.0046],[-77.2488,39.0029],[-77.2492,39.0015]]},"properties":{"PNAME":"POTOMAC R"}},{"type":"Feature","geometry":{"type":"LineString","coordinates":[[-77.3642,39.0672],[-77.3623,39.067],[-77.36,39.0681],[-77.3544,39.0672],[-77.3499,39.0695],[-77.3443,39.0686]]},"properties":{"PNAME":"POTOMAC R"}},{"type":"Feature","geometry":{"type":"LineString","coordinates":[[-77.2378,38.9787],[-77.2375,38.9798],[-77.2352,38.9809]]},"properties":{"PNAME":"DIFFICULT RUN"}},{"type":"Feature","geometry":{"type":"LineString","coordinates":[[-77.2279,39.2838],[-77.2283,39.2824],[-77.2306,39.2813],[-77.231,39.2798],[-77.2333,39.2786],[-77.2344,39.2743],[-77.2367,39.2731],[-77.2386,39.2734],[-77.2408,39.2723],[-77.2427,39.2726],[-77.245,39.2714],[-77.2454,39.27],[-77.2585,39.2721],[-77.2607,39.2709],[-77.2611,39.2695],[-77.2657,39.2672],[-77.2642,39.2654],[-77.2733,39.2608],[-77.277,39.2614],[-77.2785,39.2632],[-77.2808,39.262],[-77.2826,39.2623],[-77.2856,39.2658],[-77.2875,39.2662],[-77.2904,39.2697],[-77.2942,39.2703],[-77.2957,39.272],[-77.2975,39.2724],[-77.302,39.2776],[-77.3043,39.2765],[-77.3155,39.2783],[-77.317,39.2801],[-77.3207,39.2807],[-77.323,39.2795],[-77.3234,39.278],[-77.3328,39.2796],[-77.3342,39.2814],[-77.3361,39.2817],[-77.3384,39.2805],[-77.3403,39.2808],[-77.3418,39.2826],[-77.3455,39.2832],[-77.3478,39.282],[-77.3534,39.2829],[-77.3556,39.2818],[-77.3631,39.283],[-77.3646,39.2847],[-77.3635,39.2892],[-77.3664,39.2926],[-77.366,39.2941]]},"properties":{"PNAME":"LITTLE BENNETT CR"}},{"type":"Feature","geometry":{"type":"LineString","coordinates":[[-77.3384,39.1346],[-77.3388,39.1331],[-77.3373,39.1314],[-77.3381,39.1284],[-77.3366,39.1266],[-77.337,39.1252],[-77.334,39.1217],[-77.3344,39.1202],[-77.3314,39.1167],[-77.3318,39.1152],[-77.3303,39.1135],[-77.3349,39.1112],[-77.3353,39.1097],[-77.3375,39.1086],[-77.3379,39.1071],[-77.3424,39.1048],[-77.344,39.099],[-77.3425,39.0972],[-77.3429,39.0958],[-77.3399,39.0922],[-77.3362,39.0916],[-77.3347,39.0898],[-77.3328,39.0896],[-77.3314,39.0878],[-77.3336,39.0866],[-77.334,39.0852],[-77.3363,39.0841],[-77.3366,39.0826],[-77.3389,39.0814],[-77.3393,39.0799],[-77.3416,39.0788],[-77.3443,39.0686]]},"properties":{"PNAME":"SENECA CR"}},{"type":"Feature","geometry":{"type":"MultiLineString","coordinates":[[[-77.5236,39.1529],[-77.5215,39.1504],[-77.5219,39.149],[-77.5174,39.1437],[-77.5178,39.1422],[-77.5134,39.1369],[-77.5142,39.134],[-77.5164,39.1329],[-77.5134,39.1294],[-77.5138,39.1279],[-77.5094,39.1226],[-77.5056,39.122],[-77.5041,39.1203],[-77.4948,39.1188],[-77.4933,39.117],[-77.4877,39.1161],[-77.4862,39.1144],[-77.4843,39.1141],[-77.4754,39.1035]],[[-77.5218,39.1603],[-77.5211,39.1595],[-77.5215,39.158],[-77.5224,39.1576]],[[-77.5193,39.1661],[-77.5199,39.1639],[-77.5206,39.1635]],[[-77.5191,39.1671],[-77.5191,39.1667]],[[-77.4872,39.1857],[-77.498,39.1801],[-77.4984,39.1786],[-77.5075,39.174],[-77.5079,39.1725],[-77.5101,39.1714],[-77.5139,39.172],[-77.5161,39.1708],[-77.5165,39.1694],[-77.5184,39.1684]],[[-77.4553,39.2234],[-77.4565,39.219],[-77.461,39.2167],[-77.4614,39.2152],[-77.4636,39.2141],[-77.464,39.2126],[-77.4731,39.208],[-77.4742,39.2036],[-77.4727,39.2018],[-77.4754,39.1916],[-77.4775,39.1906]]]},"properties":{"PNAME":"POTOMAC R"}},{"type":"Feature","geometry":{"type":"LineString","coordinates":[[-77.0753,39.3486],[-77.0723,39.3451],[-77.0686,39.3445],[-77.0694,39.3416],[-77.0649,39.3363],[-77.0627,39.3374],[-77.0608,39.3371],[-77.0593,39.3354],[-77.0601,39.3324],[-77.0586,39.3307],[-77.059,39.3292],[-77.0575,39.3274],[-77.0599,39.3187],[-77.057,39.3152],[-77.0574,39.3137],[-77.0596,39.3126],[-77.0582,39.3108],[-77.0586,39.3094],[-77.0608,39.3082],[-77.0616,39.3053],[-77.0601,39.3036],[-77.0613,39.2992],[-77.0599,39.2974],[-77.0602,39.296],[-77.0625,39.2948],[-77.0645,39.2875],[-77.0691,39.2852],[-77.0676,39.2835],[-77.0691,39.2776],[-77.0677,39.2759],[-77.0639,39.2753],[-77.0624,39.2735],[-77.0606,39.2732],[-77.0614,39.2703],[-77.0599,39.2685],[-77.0611,39.2642],[-77.0596,39.2624],[-77.0577,39.2621],[-77.0581,39.2607],[-77.0566,39.2588],[-77.0548,39.2585],[-77.0533,39.2568],[-77.0514,39.2565],[-77.0499,39.2547],[-77.0527,39.2445],[-77.0483,39.2392]]},"properties":{"PNAME":"CATTAIL CR"}},{"type":"Feature","geometry":{"type":"LineString","coordinates":[[-77.2006,39.3417],[-77.2028,39.3406],[-77.2032,39.3391],[-77.2051,39.3394],[-77.2119,39.336],[-77.2123,39.3345],[-77.2146,39.3334],[-77.2154,39.3304],[-77.2176,39.3293],[-77.218,39.3279],[-77.2199,39.3281],[-77.2244,39.3258],[-77.2282,39.3265],[-77.2297,39.3282],[-77.2315,39.3285],[-77.2338,39.3274],[-77.2342,39.3259],[-77.2361,39.3262],[-77.2383,39.3251],[-77.2402,39.3254],[-77.2425,39.3242],[-77.2444,39.3246],[-77.2458,39.3263],[-77.2477,39.3266],[-77.2469,39.3295],[-77.2447,39.3307],[-77.2443,39.3321],[-77.2472,39.3356],[-77.2495,39.3345],[-77.251,39.3363],[-77.2566,39.3372],[-77.2589,39.336],[-77.2645,39.337],[-77.2668,39.3358],[-77.2683,39.3375],[-77.2701,39.3378],[-77.2731,39.3414],[-77.2754,39.3402],[-77.2791,39.3408],[-77.2837,39.3385],[-77.2855,39.3388],[-77.287,39.3406],[-77.2889,39.3409],[-77.2904,39.3426],[-77.2927,39.3415],[-77.293,39.3401],[-77.2949,39.3404],[-77.3017,39.3369],[-77.3021,39.3354],[-77.304,39.3357],[-77.3085,39.3334],[-77.3142,39.3343],[-77.3164,39.3332],[-77.3172,39.3303],[-77.3195,39.3291],[-77.318,39.3273],[-77.3188,39.3245],[-77.321,39.3233],[-77.3214,39.3218],[-77.3237,39.3207],[-77.3241,39.3192],[-77.3335,39.3207],[-77.3349,39.3225],[-77.3372,39.3213],[-77.3376,39.3199],[-77.3399,39.3187],[-77.3403,39.3173],[-77.3425,39.3161],[-77.341,39.3144],[-77.3422,39.31],[-77.346,39.3106],[-77.3482,39.3094],[-77.3486,39.308],[-77.3509,39.3068],[-77.3554,39.3046],[-77.3573,39.3048],[-77.3595,39.3037],[-77.3599,39.3022],[-77.3622,39.3011],[-77.3638,39.2953],[-77.366,39.2941]]},"properties":{"PNAME":"BENNETT CR"}},{"type":"Feature","geometry":{"type":"LineString","coordinates":[[-77.0607,39.4527],[-77.0629,39.4516],[-77.0667,39.4522],[-77.069,39.451],[-77.0701,39.4467],[-77.0724,39.4455],[-77.0768,39.4295],[-77.0753,39.4277],[-77.0765,39.4233],[-77.075,39.4216],[-77.0778,39.4114],[-77.0763,39.4096],[-77.0779,39.4038],[-77.0764,39.4021],[-77.0787,39.4009],[-77.0795,39.398],[-77.0818,39.3968],[-77.0788,39.3933],[-77.0811,39.3922],[-77.0815,39.3907],[-77.0906,39.3861],[-77.0909,39.3846],[-77.0932,39.3835],[-77.0918,39.3818],[-77.0925,39.3788],[-77.0896,39.3753],[-77.0802,39.3737],[-77.0758,39.3685],[-77.072,39.3678],[-77.0705,39.3661],[-77.0687,39.3658],[-77.0691,39.3643],[-77.0661,39.3608],[-77.0605,39.3599],[-77.0582,39.361],[-77.0544,39.3604],[-77.0522,39.3615],[-77.0465,39.3606],[-77.0436,39.3571],[-77.0413,39.3583],[-77.0394,39.358],[-77.035,39.3527],[-77.0327,39.3538],[-77.0252,39.3526],[-77.0207,39.3549],[-77.0188,39.3546],[-77.0143,39.3568],[-77.0086,39.3559],[-77.0064,39.3571],[-77.0045,39.3568],[-77.003,39.355],[-77.0008,39.3562],[-76.9989,39.3559],[-76.9966,39.357],[-76.9962,39.3585],[-76.9916,39.3607],[-76.9898,39.3604],[-76.9875,39.3616],[-76.9856,39.3613],[-76.9842,39.3595],[-76.9823,39.3592],[-76.9777,39.3615],[-76.9684,39.3599],[-76.9654,39.3564],[-76.9635,39.3561],[-76.9612,39.3573],[-76.9556,39.3563],[-76.9534,39.3574],[-76.9529,39.3589],[-76.9492,39.3583],[-76.9477,39.3565],[-76.9459,39.3562],[-76.9436,39.3574],[-76.9398,39.3567],[-76.9384,39.355],[-76.9327,39.354],[-76.9312,39.3523],[-76.9256,39.3514],[-76.9242,39.3496],[-76.9223,39.3493],[-76.92,39.3504],[-76.9181,39.3501],[-76.9162,39.3498],[-76.9148,39.3481],[-76.9125,39.3492],[-76.9117,39.3521],[-76.9094,39.3532],[-76.9019,39.352],[-76.8996,39.3532],[-76.8903,39.3516],[-76.8888,39.3499],[-76.8869,39.3495]]},"properties":{"PNAME":"PATAPSCO R"}},{"type":"Feature","geometry":{"type":"LineString","coordinates":[[-77.1769,39.277],[-77.174,39.2735],[-77.1702,39.2729],[-77.1688,39.2712],[-77.1613,39.2699],[-77.1583,39.2664],[-77.1603,39.2591],[-77.1648,39.2568],[-77.1656,39.2539],[-77.1679,39.2528],[-77.1682,39.2513],[-77.1705,39.2502],[-77.1713,39.2472],[-77.1758,39.245],[-77.1762,39.2435],[-77.1747,39.2417],[-77.177,39.2405],[-77.1774,39.2391],[-77.182,39.2368],[-77.1823,39.2354],[-77.1891,39.2319],[-77.1899,39.229],[-77.1922,39.2278],[-77.1959,39.2284],[-77.1982,39.2273],[-77.2005,39.2261],[-77.2009,39.2247],[-77.2031,39.2235],[-77.205,39.2238],[-77.2054,39.2224],[-77.2099,39.2201],[-77.2103,39.2186],[-77.2126,39.2175],[-77.213,39.216],[-77.2092,39.2154],[-77.2077,39.2136],[-77.2085,39.2107],[-77.2108,39.2096],[-77.2116,39.2067],[-77.2078,39.2061],[-77.2063,39.2043],[-77.2071,39.2014],[-77.2094,39.2002],[-77.2079,39.1985],[-77.2102,39.1973],[-77.2121,39.1976],[-77.2129,39.1947],[-77.2174,39.1924],[-77.2182,39.1895],[-77.2227,39.1872],[-77.2258,39.1756],[-77.2281,39.1744],[-77.2266,39.1726],[-77.2278,39.1682],[-77.2301,39.1671],[-77.2304,39.1656],[-77.2395,39.1611],[-77.2432,39.1616],[-77.2455,39.1605],[-77.2474,39.1608],[-77.2542,39.1574],[-77.2546,39.1559],[-77.2568,39.1548],[-77.2572,39.1533],[-77.2617,39.151],[-77.2602,39.1492],[-77.2625,39.1481],[-77.2629,39.1466],[-77.2652,39.1455],[-77.2708,39.1464],[-77.273,39.1452],[-77.2701,39.1417],[-77.2723,39.1405],[-77.2727,39.1391],[-77.2713,39.1373],[-77.2694,39.137],[-77.2679,39.1353],[-77.2683,39.1338],[-77.2702,39.1341],[-77.2724,39.133],[-77.2739,39.1347],[-77.2758,39.135],[-77.2803,39.1327],[-77.2807,39.1312],[-77.2792,39.1295],[-77.2815,39.1283],[-77.2833,39.1287],[-77.2856,39.1275],[-77.295,39.129],[-77.2972,39.1279],[-77.301,39.1285],[-77.3024,39.1303],[-77.3043,39.1305],[-77.3088,39.1282],[-77.3107,39.1285],[-77.313,39.1274],[-77.3144,39.1291],[-77.3163,39.1295],[-77.3219,39.1303],[-77.3242,39.1292],[-77.3257,39.131],[-77.3275,39.1312],[-77.329,39.133],[-77.3384,39.1346]]},"properties":{"PNAME":"GREAT SENECA CR"}},{"type":"Feature","geometry":{"type":"LineString","coordinates":[[-77.2352,38.9809],[-77.233,38.9821],[-77.2292,38.9815],[-77.2278,38.9797],[-77.2259,38.9794],[-77.223,38.9759],[-77.2211,38.9755],[-77.2188,38.9767],[-77.2132,38.9758],[-77.2103,38.9723],[-77.208,38.9734],[-77.2065,38.9717],[-77.2047,38.9713],[-77.2028,38.971],[-77.2006,38.9722],[-77.195,38.9713],[-77.1927,38.9724],[-77.1871,38.9715],[-77.1849,38.9726],[-77.1793,38.9717],[-77.1778,38.97],[-77.1755,38.9711],[-77.1751,38.9726],[-77.1677,38.9713],[-77.1654,38.9725],[-77.1635,38.9722],[-77.1621,38.9705],[-77.1602,38.9701],[-77.1579,38.9713],[-77.1542,38.9707],[-77.1527,38.9689],[-77.149,38.9683],[-77.1475,38.9665]]},"properties":{"PNAME":"POTOMAC R"}},{"type":"Feature","geometry":{"type":"LineString","coordinates":[[-77.443,39.0715],[-77.4416,39.0767]]},"properties":{"PNAME":"BROAD RUN"}},{"type":"Feature","geometry":{"type":"LineString","coordinates":[[-77.553,39.2792],[-77.5494,39.2811]]},"properties":{"PNAME":"CATOCTIN CR"}},{"type":"Feature","geometry":{"type":"MultiLineString","coordinates":[[[-77.1325,38.9486],[-77.1314,38.9469]],[[-77.1475,38.9665],[-77.1461,38.9648],[-77.1405,38.9638],[-77.139,38.9621],[-77.1394,38.9606],[-77.1364,38.9571],[-77.1346,38.9568],[-77.1354,38.9539],[-77.1324,38.9504],[-77.1328,38.949]]]},"properties":{"PNAME":"POTOMAC R"}},{"type":"Feature","geometry":{"type":"LineString","coordinates":[[-77.1903,39.1332],[-77.1907,39.1318],[-77.1953,39.1295],[-77.1957,39.128],[-77.2024,39.1246],[-77.2043,39.1249],[-77.2066,39.1237],[-77.207,39.1223],[-77.2115,39.12],[-77.2134,39.1203],[-77.2148,39.122],[-77.2194,39.1197],[-77.2212,39.12],[-77.2258,39.1177],[-77.2262,39.1163],[-77.2284,39.1151],[-77.2288,39.1137],[-77.2311,39.1125],[-77.2296,39.1108],[-77.2318,39.1096],[-77.2337,39.1099],[-77.236,39.1087],[-77.2378,39.1091],[-77.2469,39.1045],[-77.2477,39.1016],[-77.2499,39.1004],[-77.2484,39.0986],[-77.25,39.0928],[-77.2519,39.0931],[-77.2564,39.0908],[-77.2583,39.0911],[-77.2605,39.09],[-77.2628,39.0888],[-77.2613,39.087],[-77.2659,39.0848],[-77.2677,39.0851],[-77.27,39.0839],[-77.2775,39.0851],[-77.2797,39.084],[-77.2816,39.0843],[-77.2884,39.0808],[-77.2891,39.0779],[-77.2888,39.0793],[-77.2869,39.079],[-77.2854,39.0773],[-77.2877,39.0761],[-77.2881,39.0747],[-77.2937,39.0756],[-77.2959,39.0744],[-77.2963,39.073],[-77.2948,39.0712],[-77.2971,39.0701],[-77.2979,39.0672],[-77.2964,39.0654],[-77.2968,39.0639],[-77.2953,39.0622],[-77.2969,39.0564]]},"properties":{"PNAME":"MUDDY BR"}},{"type":"Feature","geometry":{"type":"LineString","coordinates":[[-77.44,39.2954],[-77.4423,39.2942],[-77.4408,39.2925],[-77.4416,39.2896],[-77.4401,39.2878],[-77.4405,39.2863],[-77.4427,39.2852],[-77.4435,39.2823],[-77.4458,39.2811],[-77.4466,39.2782],[-77.447,39.2767],[-77.4455,39.275],[-77.4462,39.272],[-77.4418,39.2668],[-77.4361,39.2659],[-77.4347,39.2641],[-77.4328,39.2638],[-77.4269,39.2568],[-77.4272,39.2553],[-77.4284,39.251],[-77.4329,39.2486],[-77.4333,39.2472],[-77.4352,39.2475],[-77.4375,39.2463],[-77.4393,39.2466],[-77.4416,39.2455],[-77.442,39.244],[-77.4439,39.2443],[-77.4484,39.2421],[-77.4499,39.2362],[-77.447,39.2327],[-77.4473,39.2312],[-77.4496,39.23],[-77.4508,39.2257],[-77.4553,39.2234]]},"properties":{"PNAME":"MONOCACY R"}}]}