{"type":"FeatureCollection","features":[{"type":"Feature","geometry":{"type":"Polygon","coordinates":[[[-77.37365,39.2222],[-77.37214,39.22417],[-77.37299,39.22408],[-77.37221,39.22487],[-77.37306,39.2253],[-77.37251,39.22587],[-77.37446,39.22689],[-77.37449,39.22734],[-77.37611,39.22784],[-77.37694,39.22455],[-77.37715,39.22218],[-77.38034,39.22252],[-77.38016,39.22432],[-77.38458,39.22783],[-77.38717,39.22506],[-77.38999,39.22483],[-77.39149,39.22365],[-77.38801,39.2222],[-77.38341,39.22154],[-77.3838,39.21916],[-77.38645,39.21867],[-77.3826,39.21641],[-77.38093,39.21628],[-77.37998,39.21588],[-77.38173,39.21268],[-77.38047,39.21223],[-77.37824,39.21621],[-77.37439,39.21555],[-77.37376,39.21573],[-77.37365,39.2222]]]},"properties":{"MUN_NAME":"BARNESVILLE"}},{"type":"Feature","geometry":{"type":"Polygon","coordinates":[[[-77.0582,39.18375],[-77.05809,39.18399],[-77.06033,39.18521],[-77.06223,39.18367],[-77.06224,39.18324],[-77.06126,39.18222],[-77.06185,39.18162],[-77.06158,39.18106],[-77.06335,39.1811],[-77.06162,39.18022],[-77.06157,39.17839],[-77.06014,39.17793],[-77.05893,39.17675],[-77.05819,39.17657],[-77.05803,39.17734],[-77.0558,39.17723],[-77.05579,39.17804],[-77.0564,39.1792],[-77.05692,39.17951],[-77.05639,39.18162],[-77.05597,39.18202],[-77.05678,39.18215],[-77.05732,39.18285],[-77.05846,39.18323],[-77.0582,39.18375]]]},"properties":{"MUN_NAME":"BROOKEVILLE"}},{"type":"Feature","geometry":{"type":"Polygon","coordinates":[[[-77.07137,38.98119],[-77.07163,38.98198],[-77.07713,38.98178],[-77.07714,38.97665],[-77.07177,38.97658],[-77.07116,38.9775],[-77.07081,38.97925],[-77.07137,38.98119]]]},"properties":{"MUN_NAME":"CHEVY CHASE SECTION 3"}},{"type":"Feature","geometry":{"type":"Polygon","coordinates":[[[-77.076,38.98659],[-77.07716,38.9865],[-77.07713,38.9818],[-77.07163,38.98198],[-77.07137,38.98119],[-77.07063,38.98123],[-77.07074,38.98308],[-77.07,38.98316],[-77.07006,38.98474],[-77.07244,38.9855],[-77.07196,38.98623],[-77.07491,38.98614],[-77.07513,38.98638],[-77.07559,38.98613],[-77.076,38.98659]]]},"properties":{"MUN_NAME":"CHEVY CHASE SECTION 5"}},{"type":"Feature","geometry":{"type":"Polygon","coordinates":[[[-77.08075,38.98816],[-77.08215,38.98831],[-77.0834,38.98788],[-77.08551,38.98653],[-77.08717,38.98452],[-77.09215,38.98273],[-77.09169,38.98161],[-77.09105,38.98152],[-77.09065,38.97935],[-77.08999,38.97942],[-77.08963,38.97711],[-77.07714,38.97665],[-77.07715,38.98806],[-77.08075,38.98816]]]},"properties":{"MUN_NAME":"CHEVY CHASE TOWN"}},{"type":"Feature","geometry":{"type":"Polygon","coordinates":[[[-77.07466,39.02032],[-77.0743,39.02146],[-77.08381,39.02362],[-77.084,39.02285],[-77.08519,39.02158],[-77.0881,39.01655],[-77.08299,39.0156],[-77.07779,39.01526],[-77.07755,39.01539],[-77.07737,39.0179],[-77.07499,39.01931],[-77.07466,39.02032]]]},"properties":{"MUN_NAME":"CHEVY CHASE VIEW"}},{"type":"Feature","geometry":{"type":"MultiPolygon","coordinates":[[[[-77.08363,38.96266],[-77.08289,38.96324],[-77.08372,38.96387],[-77.08308,38.96439],[-77.08224,38.96374],[-77.06943,38.97379],[-77.07237,38.97569],[-77.07177,38.97658],[-77.07716,38.97666],[-77.07717,38.97311],[-77.08081,38.97165],[-77.08363,38.97142],[-77.0835,38.96862],[-77.084,38.9684],[-77.08918,38.96904],[-77.08868,38.96667],[-77.08743,38.96381],[-77.08613,38.9644],[-77.08547,38.96346],[-77.08485,38.96314],[-77.08444,38.96331],[-77.08363,38.96266]]],[[[-77.08364,38.96266],[-77.08361,38.96265],[-77.08363,38.96266],[-77.08364,38.96266]]]]},"properties":{"MUN_NAME":"CHEVY CHASE VILLAGE"}},{"type":"Feature","geometry":{"type":"Polygon","coordinates":[[[-77.21321,39.16696],[-77.21274,39.16724],[-77.21481,39.16831],[-77.21684,39.16636],[-77.21882,39.16679],[-77.22108,39.16677],[-77.22223,39.16295],[-77.2234,39.16437],[-77.22631,39.16638],[-77.22714,39.16497],[-77.22916,39.16351],[-77.23026,39.16171],[-77.23182,39.16096],[-77.22554,39.15695],[-77.22727,39.15577],[-77.23403,39.15428],[-77.23439,39.15561],[-77.23705,39.15564],[-77.23728,39.15493],[-77.23832,39.15424],[-77.23873,39.15432],[-77.23988,39.15327],[-77.23844,39.15279],[-77.23884,39.15193],[-77.23847,39.14994],[-77.23886,39.14866],[-77.23803,39.14849],[-77.23793,39.14627],[-77.23873,39.14395],[-77.24124,39.14324],[-77.24252,39.1409],[-77.2435,39.14013],[-77.24326,39.13915],[-77.24254,39.13809],[-77.24313,39.13711],[-77.24175,39.13681],[-77.24199,39.13628],[-77.24341,39.13661],[-77.24419,39.13487],[-77.24351,39.13475],[-77.24362,39.13448],[-77.2443,39.13461],[-77.24474,39.13336],[-77.24389,39.12775],[-77.24976,39.12252],[-77.25067,39.11983],[-77.25228,39.11814],[-77.25522,39.12036],[-77.2554,39.12102],[-77.2574,39.12143],[-77.25759,39.12088],[-77.25827,39.1207],[-77.2573,39.1185],[-77.25307,39.11815],[-77.25298,39.11656],[-77.2512,39.11612],[-77.25079,39.1171],[-77.25134,39.11687],[-77.251,39.11752],[-77.24556,39.11555],[-77.24024,39.11214],[-77.23596,39.10809],[-77.22933,39.10438],[-77.22717,39.10372],[-77.22264,39.10329],[-77.22043,39.10275],[-77.21808,39.10796],[-77.21157,39.10686],[-77.21266,39.10843],[-77.21082,39.11233],[-77.20797,39.11218],[-77.20731,39.1125],[-77.20592,39.11023],[-77.20365,39.11007],[-77.19727,39.10849],[-77.19547,39.10701],[-77.19398,39.10786],[-77.19188,39.11033],[-77.19194,39.11106],[-77.19922,39.11295],[-77.19913,39.11326],[-77.20099,39.11384],[-77.20394,39.116],[-77.20566,39.11642],[-77.20565,39.11708],[-77.20468,39.11691],[-77.20237,39.11788],[-77.20114,39.11662],[-77.19917,39.1162],[-77.19797,39.11461],[-77.19716,39.11405],[-77.1936,39.11366],[-77.19456,39.11299],[-77.19519,39.11209],[-77.19206,39.11119],[-77.19196,39.11142],[-77.19053,39.11115],[-77.18991,39.11198],[-77.18775,39.10999],[-77.18672,39.11331],[-77.18827,39.11321],[-77.18814,39.1137],[-77.18772,39.11372],[-77.18882,39.11417],[-77.1881,39.11484],[-77.18631,39.11405],[-77.18431,39.11671],[-77.18498,39.11701],[-77.18467,39.11741],[-77.18672,39.11743],[-77.18961,39.11344],[-77.19315,39.11654],[-77.19209,39.11722],[-77.19202,39.11756],[-77.19307,39.11783],[-77.19248,39.12015],[-77.18945,39.11972],[-77.18909,39.12139],[-77.18929,39.12206],[-77.18826,39.12283],[-77.18762,39.12398],[-77.19273,39.1262],[-77.19177,39.12695],[-77.19239,39.12756],[-77.19172,39.12838],[-77.19134,39.12881],[-77.19023,39.12826],[-77.1892,39.13016],[-77.18857,39.13039],[-77.18808,39.1299],[-77.18614,39.12776],[-77.1867,39.12742],[-77.18519,39.12593],[-77.18747,39.12472],[-77.18583,39.12342],[-77.18407,39.12487],[-77.18349,39.12455],[-77.18539,39.12313],[-77.18561,39.12244],[-77.18776,39.12355],[-77.18864,39.1223],[-77.18876,39.12169],[-77.18531,39.12065],[-77.18661,39.1199],[-77.18666,39.11926],[-77.18516,39.11917],[-77.18511,39.11959],[-77.18477,39.11957],[-77.18475,39.12048],[-77.18351,39.11997],[-77.18309,39.12012],[-77.18291,39.12095],[-77.18058,39.12179],[-77.17944,39.12302],[-77.1796,39.12351],[-77.17987,39.12327],[-77.18029,39.12355],[-77.18128,39.12265],[-77.17965,39.12413],[-77.18065,39.1248],[-77.18001,39.12471],[-77.17873,39.12587],[-77.17381,39.12324],[-77.17199,39.12515],[-77.17389,39.12622],[-77.17737,39.12665],[-77.17778,39.1282],[-77.17724,39.13033],[-77.18123,39.1267],[-77.18314,39.12801],[-77.18577,39.13133],[-77.1851,39.13172],[-77.18593,39.13258],[-77.18558,39.13269],[-77.18617,39.13329],[-77.18154,39.13591],[-77.18113,39.13547],[-77.18031,39.136],[-77.18061,39.13631],[-77.17903,39.13737],[-77.18034,39.13832],[-77.17939,39.13978],[-77.17994,39.13996],[-77.17836,39.14676],[-77.17497,39.14778],[-77.17194,39.14777],[-77.17195,39.14807],[-77.17118,39.14805],[-77.17119,39.14845],[-77.17433,39.15045],[-77.1739,39.15074],[-77.17247,39.15],[-77.17179,39.15088],[-77.1726,39.15151],[-77.17219,39.15185],[-77.17432,39.15375],[-77.17531,39.15363],[-77.1753,39.15308],[-77.17778,39.15383],[-77.17804,39.1535],[-77.18097,39.15397],[-77.18147,39.15489],[-77.18046,39.15661],[-77.18093,39.15649],[-77.1811,39.15765],[-77.18371,39.15803],[-77.18385,39.15848],[-77.1834,39.15889],[-77.18622,39.15947],[-77.18632,39.15888],[-77.18665,39.15889],[-77.18657,39.1595],[-77.18695,39.15953],[-77.18731,39.15953],[-77.18737,39.15893],[-77.18772,39.15893],[-77.18766,39.15954],[-77.18999,39.15958],[-77.19162,39.15998],[-77.19169,39.15573],[-77.19215,39.15288],[-77.19578,39.15249],[-77.19885,39.15269],[-77.20408,39.15756],[-77.20465,39.15758],[-77.20607,39.1565],[-77.20781,39.15616],[-77.20796,39.15971],[-77.20745,39.16178],[-77.20774,39.16388],[-77.20962,39.16418],[-77.21037,39.16467],[-77.21114,39.16453],[-77.21406,39.16615],[-77.21321,39.16696]],[[-77.2214,39.14075],[-77.22073,39.14217],[-77.22026,39.14227],[-77.21836,39.14187],[-77.21487,39.14053],[-77.20457,39.13999],[-77.20495,39.13895],[-77.20345,39.13825],[-77.20526,39.1364],[-77.20488,39.13633],[-77.208,39.12888],[-77.21487,39.12383],[-77.21635,39.12112],[-77.21856,39.121],[-77.22059,39.12158],[-77.22141,39.12223],[-77.22113,39.12316],[-77.22258,39.12348],[-77.22408,39.12576],[-77.22405,39.12806],[-77.22708,39.12984],[-77.22609,39.131],[-77.22539,39.13081],[-77.22492,39.13136],[-77.22578,39.13136],[-77.22403,39.13319],[-77.2214,39.14075]]]},"properties":{"MUN_NAME":"GAITHERSBURG"}},{"type":"Feature","geometry":{"type":"Polygon","coordinates":[[[-77.08816,39.03211],[-77.08598,39.03309],[-77.08939,39.03512],[-77.09953,39.04403],[-77.09952,39.03946],[-77.09747,39.03842],[-77.09633,39.03612],[-77.09537,39.03496],[-77.09606,39.03255],[-77.08856,39.03051],[-77.08816,39.03211]]]},"properties":{"MUN_NAME":"GARRETT PARK"}},{"type":"Feature","geometry":{"type":"Polygon","coordinates":[[[-77.14434,38.97224],[-77.14666,38.97274],[-77.14829,38.97259],[-77.1473,38.97076],[-77.14646,38.97016],[-77.14544,38.97008],[-77.14394,38.96946],[-77.14079,38.9663],[-77.13792,38.96431],[-77.13634,38.96482],[-77.13734,38.96544],[-77.13899,38.96858],[-77.14145,38.96957],[-77.14319,38.97158],[-77.14434,38.97224]]]},"properties":{"MUN_NAME":"GLEN ECHO"}},{"type":"Feature","geometry":{"type":"Polygon","coordinates":[[[-77.07328,39.03297],[-77.07519,39.03289],[-77.0752,39.03332],[-77.07701,39.03328],[-77.07716,39.03244],[-77.07639,39.03247],[-77.07804,39.02953],[-77.0801,39.02693],[-77.08108,39.02293],[-77.0743,39.02146],[-77.07499,39.01931],[-77.07147,39.01882],[-77.06816,39.02423],[-77.06966,39.0258],[-77.06917,39.02553],[-77.06802,39.02568],[-77.06826,39.02618],[-77.06861,39.02622],[-77.06869,39.02806],[-77.06927,39.02826],[-77.06937,39.02923],[-77.06876,39.02909],[-77.06796,39.03185],[-77.06946,39.03192],[-77.06952,39.03299],[-77.06811,39.0351],[-77.07104,39.03441],[-77.07328,39.03297]]]},"properties":{"MUN_NAME":"KENSINGTON"}},{"type":"Feature","geometry":{"type":"Polygon","coordinates":[[[-77.13723,39.20237],[-77.13441,39.20361],[-77.12432,39.21026],[-77.12483,39.21194],[-77.12712,39.21036],[-77.12859,39.21182],[-77.13261,39.20961],[-77.13474,39.20984],[-77.13522,39.21248],[-77.13478,39.21305],[-77.14273,39.21807],[-77.14374,39.21707],[-77.14935,39.21508],[-77.15011,39.2145],[-77.15042,39.21368],[-77.14996,39.21142],[-77.15126,39.21124],[-77.15288,39.20503],[-77.14513,39.19962],[-77.14263,39.19972],[-77.14031,39.20302],[-77.13953,39.20327],[-77.13937,39.20276],[-77.14004,39.20255],[-77.13964,39.20132],[-77.13723,39.20237]]]},"properties":{"MUN_NAME":"LAYTONSVILLE"}},{"type":"Feature","geometry":{"type":"Polygon","coordinates":[[[-77.06992,38.98471],[-77.07,38.98316],[-77.07074,38.98308],[-77.07063,38.98123],[-77.07137,38.98119],[-77.07081,38.97925],[-77.07116,38.9775],[-77.07237,38.97569],[-77.06976,38.974],[-77.06698,38.97701],[-77.06789,38.97875],[-77.06653,38.98385],[-77.06992,38.98471]]]},"properties":{"MUN_NAME":"MARTINS ADDITIONS"}},{"type":"Feature","geometry":{"type":"Polygon","coordinates":[[[-77.07171,39.00361],[-77.07171,39.00498],[-77.07507,39.00488],[-77.07529,39.00389],[-77.07732,39.00418],[-77.07664,38.99991],[-77.07115,38.99921],[-77.07101,38.9998],[-77.07144,39.00037],[-77.07149,39.00119],[-77.07117,39.00162],[-77.07153,39.00169],[-77.07157,39.00213],[-77.07083,39.00315],[-77.07169,39.00331],[-77.07171,39.00361]]]},"properties":{"MUN_NAME":"NORTH CHEVY CHASE"}},{"type":"Feature","geometry":{"type":"Polygon","coordinates":[[[-77.4336,39.16259],[-77.43386,39.16261],[-77.43394,39.15845],[-77.43212,39.15845],[-77.43348,39.15664],[-77.43567,39.15471],[-77.4368,39.15072],[-77.43362,39.14831],[-77.43311,39.14948],[-77.43059,39.14859],[-77.43055,39.149],[-77.42989,39.14873],[-77.42968,39.14745],[-77.42812,39.14729],[-77.42821,39.14801],[-77.4249,39.14778],[-77.42466,39.14838],[-77.4234,39.14814],[-77.42247,39.14938],[-77.42213,39.14881],[-77.42272,39.14788],[-77.42219,39.14716],[-77.42172,39.14707],[-77.4217,39.14676],[-77.42294,39.14687],[-77.42407,39.14551],[-77.42763,39.14455],[-77.42774,39.14298],[-77.42713,39.14248],[-77.42453,39.13749],[-77.42728,39.13652],[-77.42628,39.13107],[-77.42355,39.13126],[-77.42279,39.13468],[-77.41564,39.13472],[-77.41544,39.12333],[-77.41486,39.12267],[-77.41242,39.123],[-77.40747,39.12295],[-77.40723,39.12345],[-77.40629,39.12164],[-77.40334,39.12066],[-77.40148,39.12046],[-77.402,39.1284],[-77.39848,39.12747],[-77.39423,39.12794],[-77.39641,39.13257],[-77.39501,39.13238],[-77.39259,39.13922],[-77.38951,39.13855],[-77.38824,39.14206],[-77.39083,39.142],[-77.39826,39.15938],[-77.39855,39.15993],[-77.39956,39.15968],[-77.40003,39.16268],[-77.40297,39.16263],[-77.40575,39.15982],[-77.40763,39.15844],[-77.40866,39.15599],[-77.40955,39.15599],[-77.41012,39.1547],[-77.4117,39.15595],[-77.4161,39.15423],[-77.4156,39.15263],[-77.4156,39.15144],[-77.41815,39.15165],[-77.41876,39.15013],[-77.41966,39.15017],[-77.4197,39.14939],[-77.4216,39.14952],[-77.42443,39.15061],[-77.42705,39.15432],[-77.428,39.15469],[-77.42803,39.15807],[-77.42934,39.15843],[-77.42778,39.16225],[-77.4336,39.16259]]]},"properties":{"MUN_NAME":"POOLESVILLE"}},{"type":"Feature","geometry":{"type":"MultiPolygon","coordinates":[[[[-77.17483,39.1197],[-77.17406,39.12055],[-77.1757,39.12146],[-77.17734,39.12037],[-77.17846,39.11902],[-77.18065,39.12013],[-77.18228,39.11899],[-77.18602,39.11382],[-77.18792,39.10965],[-77.18978,39.10658],[-77.19063,39.10274],[-77.19221,39.09929],[-77.19474,39.09662],[-77.19614,39.09342],[-77.19603,39.09316],[-77.18752,39.09099],[-77.18538,39.09119],[-77.18248,39.09255],[-77.18169,39.09238],[-77.1802,39.09139],[-77.18166,39.09092],[-77.18152,39.0897],[-77.18223,39.08913],[-77.18233,39.08938],[-77.18228,39.08862],[-77.18487,39.08859],[-77.18517,39.09102],[-77.18725,39.09083],[-77.19422,39.09226],[-77.19425,39.09004],[-77.19738,39.08487],[-77.19845,39.08526],[-77.19919,39.08405],[-77.19818,39.08362],[-77.20015,39.08044],[-77.19957,39.07988],[-77.19901,39.08026],[-77.19957,39.07988],[-77.19782,39.07744],[-77.19702,39.07785],[-77.19582,39.07718],[-77.19374,39.07718],[-77.19358,39.07641],[-77.19238,39.0763],[-77.19192,39.07593],[-77.19073,39.07717],[-77.19066,39.07738],[-77.19134,39.07778],[-77.1911,39.07805],[-77.19034,39.07771],[-77.19102,39.07661],[-77.19047,39.07615],[-77.19007,39.07672],[-77.18828,39.07489],[-77.18851,39.0745],[-77.18779,39.07418],[-77.18768,39.07469],[-77.18636,39.07453],[-77.18648,39.0739],[-77.18585,39.07376],[-77.18511,39.07273],[-77.18742,39.06957],[-77.18035,39.06769],[-77.18065,39.06672],[-77.17956,39.06551],[-77.17568,39.0644],[-77.17681,39.0625],[-77.1772,39.06098],[-77.17779,39.0603],[-77.1718,39.05968],[-77.16804,39.05833],[-77.16769,39.05859],[-77.16694,39.05785],[-77.16626,39.05847],[-77.16532,39.05812],[-77.16477,39.05849],[-77.16164,39.0589],[-77.16105,39.0615],[-77.1581,39.06127],[-77.15786,39.06207],[-77.15584,39.06169],[-77.15518,39.05892],[-77.15175,39.05623],[-77.14781,39.0556],[-77.14446,39.05465],[-77.13993,39.05452],[-77.13133,39.05329],[-77.13086,39.05576],[-77.12627,39.05527],[-77.1265,39.05793],[-77.12116,39.05827],[-77.11831,39.0581],[-77.11748,39.05714],[-77.11592,39.05793],[-77.11523,39.0579],[-77.11857,39.0608],[-77.11807,39.06195],[-77.11705,39.06168],[-77.11706,39.06199],[-77.11677,39.06199],[-77.11675,39.0627],[-77.11723,39.0627],[-77.11722,39.06337],[-77.11768,39.06336],[-77.11734,39.06404],[-77.11639,39.06367],[-77.11585,39.06445],[-77.1165,39.06488],[-77.11699,39.06467],[-77.11537,39.06542],[-77.11497,39.06622],[-77.11523,39.06641],[-77.11606,39.06602],[-77.1163,39.06635],[-77.11531,39.06704],[-77.11496,39.06672],[-77.11442,39.06732],[-77.11407,39.07052],[-77.11368,39.07158],[-77.11378,39.07438],[-77.11093,39.07303],[-77.1107,39.07575],[-77.10818,39.07583],[-77.10781,39.07647],[-77.10926,39.08011],[-77.11105,39.08164],[-77.1092,39.08257],[-77.1096,39.08394],[-77.10992,39.08426],[-77.11091,39.08433],[-77.11344,39.08756],[-77.11435,39.08797],[-77.11383,39.08831],[-77.11434,39.08889],[-77.11395,39.08962],[-77.1141,39.08991],[-77.11527,39.09009],[-77.11533,39.08849],[-77.11676,39.08647],[-77.11826,39.08834],[-77.1174,39.08927],[-77.11807,39.09022],[-77.1189,39.08961],[-77.11957,39.08996],[-77.11919,39.09433],[-77.12043,39.09397],[-77.12099,39.09567],[-77.12269,39.09791],[-77.12199,39.0993],[-77.12367,39.09826],[-77.12694,39.09937],[-77.12809,39.10316],[-77.13023,39.10496],[-77.13226,39.10341],[-77.13341,39.10432],[-77.13544,39.1027],[-77.132,39.10261],[-77.13221,39.10008],[-77.13321,39.09988],[-77.13372,39.09719],[-77.13421,39.09718],[-77.13437,39.09817],[-77.1361,39.09837],[-77.13621,39.09798],[-77.13649,39.09804],[-77.13635,39.09856],[-77.13764,39.09874],[-77.13659,39.09798],[-77.13681,39.09759],[-77.13659,39.09746],[-77.13711,39.09704],[-77.13802,39.09814],[-77.13923,39.09782],[-77.13936,39.09799],[-77.13891,39.09827],[-77.13975,39.09939],[-77.1397,39.09975],[-77.1409,39.09877],[-77.14065,39.09842],[-77.14096,39.09886],[-77.14143,39.09869],[-77.14188,39.09906],[-77.14269,39.09863],[-77.14229,39.0983],[-77.14269,39.097],[-77.14156,39.09623],[-77.14108,39.0965],[-77.14006,39.09537],[-77.14137,39.09458],[-77.14122,39.09383],[-77.14172,39.0938],[-77.14295,39.09518],[-77.14257,39.09668],[-77.14628,39.09675],[-77.14755,39.09757],[-77.15255,39.09673],[-77.15286,39.09753],[-77.15167,39.09772],[-77.15174,39.09808],[-77.15124,39.09816],[-77.15114,39.0978],[-77.1477,39.09836],[-77.14755,39.09992],[-77.15398,39.0989],[-77.15494,39.10185],[-77.15743,39.10131],[-77.1581,39.10227],[-77.1561,39.10325],[-77.15941,39.1075],[-77.16045,39.10968],[-77.16008,39.1098],[-77.16155,39.11225],[-77.16118,39.11308],[-77.16185,39.11517],[-77.16276,39.11525],[-77.16265,39.1138],[-77.16286,39.11372],[-77.16767,39.11671],[-77.16674,39.11764],[-77.1675,39.11835],[-77.16865,39.11728],[-77.16904,39.11751],[-77.16776,39.11858],[-77.16873,39.1192],[-77.16994,39.11805],[-77.17327,39.12032],[-77.17406,39.12055],[-77.17483,39.1197]],[[-77.17535,39.07125],[-77.17493,39.07258],[-77.17248,39.07209],[-77.17289,39.07079],[-77.17535,39.07125]]],[[[-77.11919,39.09433],[-77.11919,39.09433],[-77.11919,39.09434],[-77.11919,39.09433]]]]},"properties":{"MUN_NAME":"ROCKVILLE"}},{"type":"Feature","geometry":{"type":"Polygon","coordinates":[[[-77.08872,38.96681],[-77.08918,38.96904],[-77.10194,38.97053],[-77.10039,38.96281],[-77.09932,38.96213],[-77.09745,38.96213],[-77.09721,38.96266],[-77.09538,38.96272],[-77.09542,38.96295],[-77.09237,38.96389],[-77.09212,38.96517],[-77.09149,38.9656],[-77.09149,38.96678],[-77.08975,38.96655],[-77.08872,38.96681]]]},"properties":{"MUN_NAME":"SOMERSET"}},{"type":"Feature","geometry":{"type":"Polygon","coordinates":[[[-76.99891,38.97076],[-76.99785,38.97229],[-76.99474,38.97515],[-76.99148,38.97556],[-76.98675,38.97716],[-76.98703,38.97767],[-76.98474,38.98693],[-76.98816,38.98902],[-76.99244,38.99333],[-76.99401,38.98812],[-76.99574,38.98662],[-76.99679,38.98762],[-76.99987,38.98668],[-77.00149,38.9899],[-77.00207,38.99188],[-77.00208,38.99427],[-77.00304,38.99631],[-77.00343,38.99812],[-77.00379,38.99805],[-77.00457,38.99755],[-77.00612,38.99561],[-77.00542,38.99566],[-77.00423,38.9946],[-77.00541,38.99412],[-77.00514,38.99285],[-77.00636,38.99177],[-77.00641,38.99125],[-77.00595,38.99051],[-77.0068,38.98965],[-77.00575,38.98814],[-77.005,38.98801],[-77.00505,38.98709],[-77.00617,38.98747],[-77.00919,38.98741],[-77.01152,38.98897],[-77.01456,38.98475],[-77.01482,38.98487],[-77.01437,38.98549],[-77.01577,38.98637],[-77.01649,38.98568],[-77.02038,38.98815],[-77.02308,38.98452],[-77.02039,38.97991],[-77.00252,38.96594],[-76.99891,38.97076]]]},"properties":{"MUN_NAME":"TAKOMA PARK"}},{"type":"Feature","geometry":{"type":"Polygon","coordinates":[[[-77.1799,39.13845],[-77.18009,39.13892],[-77.17585,39.13445],[-77.17479,39.13524],[-77.17196,39.13451],[-77.17178,39.13484],[-77.17361,39.1358],[-77.17162,39.13805],[-77.17113,39.13777],[-77.17038,39.13862],[-77.16982,39.13797],[-77.16788,39.13815],[-77.16612,39.13788],[-77.16606,39.13911],[-77.1679,39.13947],[-77.16855,39.13921],[-77.16989,39.13997],[-77.16765,39.14248],[-77.16781,39.14292],[-77.17165,39.14328],[-77.17275,39.14438],[-77.17391,39.14351],[-77.1755,39.14745],[-77.17836,39.14676],[-77.17976,39.14072],[-77.17887,39.14046],[-77.18017,39.13893],[-77.18023,39.13858],[-77.17937,39.13809],[-77.1799,39.13845]]]},"properties":{"MUN_NAME":"WASHINGTON GROVE"}}]}