{"type":"FeatureCollection","features":[{"type":"Feature","id":1,"geometry":{"type":"Point","coordinates":[-77.05019164317461,39.038101987443795]},"properties":{"OBJECTID":1,"CATEGORY":"METRO STATIONS","NAME":"Wheaton","ADDRESS":"11171 Georgia Ave","CITY":"Wheaton","ZIPCODE":"20902","PHONE":"202-466-3876","URL":"https://www.wmata.com","POINT_X":1298033.37872585,"POINT_Y":499621.71499565,"LATITUDE":39.03853314,"LONGITUDE":-77.05034499,"INFO":null}},{"type":"Feature","id":2,"geometry":{"type":"Point","coordinates":[-77.04336053728863,39.01527587876451]},"properties":{"OBJECTID":2,"CATEGORY":"METRO STATIONS","NAME":"Forest Glen","ADDRESS":"9730 Georgia Ave","CITY":"Wheaton","ZIPCODE":"20902","PHONE":"202-466-3876","URL":"https://www.wmata.com","POINT_X":1300013.85949569,"POINT_Y":491147.35620375,"LATITUDE":39.01526803,"LONGITUDE":-77.04335826,"INFO":null}},{"type":"Feature","id":3,"geometry":{"type":"Point","coordinates":[-77.0311095105944,38.99395128972283]},"properties":{"OBJECTID":3,"CATEGORY":"METRO STATIONS","NAME":"Silver Spring","ADDRESS":"8400 Colesville Rd","CITY":"Silver Spring","ZIPCODE":"20910","PHONE":"202-466-3876","URL":"https://www.wmata.com","POINT_X":1303492.12356293,"POINT_Y":483379.39024452,"LATITUDE":38.99394344,"LONGITUDE":-77.03110724,"INFO":null}},{"type":"Feature","id":4,"geometry":{"type":"Point","coordinates":[-77.08550350345914,38.961589662989404]},"properties":{"OBJECTID":4,"CATEGORY":"METRO STATIONS","NAME":"Friendship Heights","ADDRESS":"5400 Wisconsin Ave","CITY":"Friendship Heights","ZIPCODE":"20815","PHONE":"202-466-3876","URL":"https://www.wmata.com","POINT_X":1288021.37487653,"POINT_Y":471603.03132155,"LATITUDE":38.96158182,"LONGITUDE":-77.08550122,"INFO":null}},{"type":"Feature","id":5,"geometry":{"type":"Point","coordinates":[-77.09464595691608,38.98409269534757]},"properties":{"OBJECTID":5,"CATEGORY":"METRO STATIONS","NAME":"Bethesda","ADDRESS":"7450 Wisconsin Ave","CITY":"Bethesda","ZIPCODE":"20814","PHONE":"202-466-3876","URL":"https://www.wmata.com","POINT_X":1285430.24988211,"POINT_Y":479801.28131319,"LATITUDE":38.98408485,"LONGITUDE":-77.09464367,"INFO":null}},{"type":"Feature","id":6,"geometry":{"type":"Point","coordinates":[-77.09778689018556,38.99908162043159]},"properties":{"OBJECTID":6,"CATEGORY":"METRO STATIONS","NAME":"Medical Center","ADDRESS":"8810 Rockville Pik","CITY":"Bethesda","ZIPCODE":"20892","PHONE":"202-466-3876","URL":"https://www.wmata.com","POINT_X":1284543.26671329,"POINT_Y":485261.26339827,"LATITUDE":38.99907377,"LONGITUDE":-77.0977846,"INFO":null}},{"type":"Feature","id":7,"geometry":{"type":"Point","coordinates":[-77.10365543747032,39.028835134962144]},"properties":{"OBJECTID":7,"CATEGORY":"METRO STATIONS","NAME":"Grosvenor-Strathmore","ADDRESS":"10300 Rockville Pik","CITY":"Rockville","ZIPCODE":"20852","PHONE":"202-466-3876","URL":"https://www.wmata.com","POINT_X":1282887.75003974,"POINT_Y":496099.53131237,"LATITUDE":39.02882728,"LONGITUDE":-77.10365314,"INFO":null}},{"type":"Feature","id":8,"geometry":{"type":"Point","coordinates":[-77.11262328029721,39.047620340052944]},"properties":{"OBJECTID":8,"CATEGORY":"METRO STATIONS","NAME":"North Bethesda","ADDRESS":"5500 Marinelli Rd","CITY":"Rockville","ZIPCODE":"20852","PHONE":"202-466-3876","URL":"https://www.wmata.com","POINT_X":1280348.62504538,"POINT_Y":502944.28114274,"LATITUDE":39.04761248,"LONGITUDE":-77.11262098,"INFO":null}},{"type":"Feature","id":9,"geometry":{"type":"Point","coordinates":[-77.12037061675625,39.0619699962984]},"properties":{"OBJECTID":9,"CATEGORY":"METRO STATIONS","NAME":"Twinbrook","ADDRESS":"1600 Chapman Ave","CITY":"Rockville","ZIPCODE":"20852","PHONE":"202-466-3876","URL":"https://www.wmata.com","POINT_X":1278155.25006734,"POINT_Y":508173.37503561,"LATITUDE":39.06196214,"LONGITUDE":-77.12036832,"INFO":null}},{"type":"Feature","id":10,"geometry":{"type":"Point","coordinates":[-77.14663672237545,39.08443918346376]},"properties":{"OBJECTID":10,"CATEGORY":"METRO STATIONS","NAME":"Rockville","ADDRESS":"251 Hungerford Dr","CITY":"Rockville","ZIPCODE":"20850","PHONE":"202-466-3876","URL":"https://www.wmata.com","POINT_X":1270710.2501244,"POINT_Y":516367.81241924,"LATITUDE":39.08443132,"LONGITUDE":-77.14663441,"INFO":null}},{"type":"Feature","id":11,"geometry":{"type":"Point","coordinates":[-77.16468000866658,39.11992767666488]},"properties":{"OBJECTID":11,"CATEGORY":"METRO STATIONS","NAME":"Shady Grove","ADDRESS":"15903 Somerville Dr","CITY":"Rockville","ZIPCODE":"20855","PHONE":"202-466-3876","URL":"https://www.wmata.com","POINT_X":1265611.87495166,"POINT_Y":529301.93748729,"LATITUDE":39.11991981,"LONGITUDE":-77.16467769,"INFO":null}},{"type":"Feature","id":12,"geometry":{"type":"Point","coordinates":[-77.05311275139313,39.06229082627281]},"properties":{"OBJECTID":12,"CATEGORY":"METRO STATIONS","NAME":"Glenmont","ADDRESS":"12501 Georgia Ave","CITY":"Silver Spring","ZIPCODE":"20906","PHONE":"202-466-3876","URL":"https://www.wmata.com","POINT_X":1297252.90486912,"POINT_Y":508272.0778837,"LATITUDE":39.06228296,"LONGITUDE":-77.05311047,"INFO":null}},{"type":"Feature","id":13,"geometry":{"type":"Point","coordinates":[-77.01743800562924,38.976346088944396]},"properties":{"OBJECTID":13,"CATEGORY":"METRO STATIONS","NAME":"Takoma","ADDRESS":"327 Cedar St NW","CITY":"Washington","ZIPCODE":"20012","PHONE":"202-466-3876","URL":"https://www.wmata.com","POINT_X":1307376.57643055,"POINT_Y":476966.46044655,"LATITUDE":38.97633824,"LONGITUDE":-77.01743574,"INFO":null}}]}